{"type":"Topology","objects":{"bayarea_zipcodes":{"type":"GeometryCollection","bbox":[5898289.763185433,1916261.944963626,6298809.209062446,2506800.446633608],"geometries":[{"type":"Polygon","properties":{"ZIP":"94558","PO_NAME":"NAPA","STATE":"CA","Area__":12313263537,"Length__":995176.225313},"arcs":[[-1,-2,-3,-4,-5],[-6]]},{"type":"Polygon","properties":{"ZIP":"95620","PO_NAME":"DIXON","STATE":"CA","Area__":7236949520.92,"Length__":441860.2014},"arcs":[[-7,-8]]},{"type":"Polygon","properties":{"ZIP":"95476","PO_NAME":"SONOMA","STATE":"CA","Area__":3001414164.85,"Length__":311318.546326},"arcs":[[-9,1,-10,-11,-12]]},{"type":"Polygon","properties":{"ZIP":"94559","PO_NAME":"NAPA","STATE":"CA","Area__":1194301744.88,"Length__":359104.646602},"arcs":[[-13,2,8,-14,-15]]},{"type":"Polygon","properties":{"ZIP":"94533","PO_NAME":"FAIRFIELD","STATE":"CA","Area__":991786103.42,"Length__":200772.556587},"arcs":[[-16,-17,-18]]},{"type":"Polygon","properties":{"ZIP":"94954","PO_NAME":"PETALUMA","STATE":"CA","Area__":2006544443.06,"Length__":267474.490552},"arcs":[[10,-19,-20,-21]]},{"type":"Polygon","properties":{"ZIP":"94571","PO_NAME":"RIO VISTA","STATE":"CA","Area__":4454445620.31,"Length__":492056.752411},"arcs":[[-22,-23,-24,-25,7,-26,-27,-28,-29,-30]]},{"type":"Polygon","properties":{"ZIP":"94535","PO_NAME":"TRAVIS AFB","STATE":"CA","Area__":302939707.726,"Length__":95232.0084207},"arcs":[[-31,17,-32,26]]},{"type":"Polygon","properties":{"ZIP":"94503","PO_NAME":"AMERICAN CANYON","STATE":"CA","Area__":693134128.346,"Length__":136394.695137},"arcs":[[3,12,-33,-34,-35,-36]]},{"type":"Polygon","properties":{"ZIP":"94945","PO_NAME":"NOVATO","STATE":"CA","Area__":753717019.188,"Length__":159439.880452},"arcs":[[-37,19,-38,-39,-40]]},{"type":"Polygon","properties":{"ZIP":"94512","PO_NAME":"BIRDS LANDING","STATE":"CA","Area__":255902602.885,"Length__":94434.9504007},"arcs":[[28,-41]]},{"type":"Polygon","properties":{"ZIP":"94591","PO_NAME":"VALLEJO","STATE":"CA","Area__":484506685.041,"Length__":109660.438701},"arcs":[[-42,-43,-44,-45,34,-46]]},{"type":"Polygon","properties":{"ZIP":"94510","PO_NAME":"BENICIA","STATE":"CA","Area__":856794194.479,"Length__":180958.749249},"arcs":[[-47,43,-48]]},{"type":"Polygon","properties":{"ZIP":"94592","PO_NAME":"VALLEJO","STATE":"CA","Area__":488545032.082,"Length__":136524.530193},"arcs":[[-49,-50,32,14,-51]]},{"type":"Polygon","properties":{"ZIP":"94589","PO_NAME":"VALLEJO","STATE":"CA","Area__":171389540.97,"Length__":68793.1785368},"arcs":[[45,33,49,-52]]},{"type":"Polygon","properties":{"ZIP":"94947","PO_NAME":"NOVATO","STATE":"CA","Area__":526285868.495,"Length__":142727.1472},"arcs":[[38,-53,-54,-55]]},{"type":"Polygon","properties":{"ZIP":"94590","PO_NAME":"VALLEJO","STATE":"CA","Area__":163378828.223,"Length__":72484.5706619},"arcs":[[51,48,-56,41]]},{"type":"Polygon","properties":{"ZIP":"94946","PO_NAME":"NICASIO","STATE":"CA","Area__":1745903848.69,"Length__":255832.255447},"arcs":[[-57,-58,-59,-60,-61,-62,53,-63,-64]]},{"type":"Polygon","properties":{"ZIP":"94561","PO_NAME":"OAKLEY","STATE":"CA","Area__":1765427018.4,"Length__":254803.56582},"arcs":[[-65,-66,-67,23,-68,-69,-70]]},{"type":"Polygon","properties":{"ZIP":"94949","PO_NAME":"NOVATO","STATE":"CA","Area__":431605416.639,"Length__":119395.672078},"arcs":[[39,54,61,-71,-72]]},{"type":"MultiPolygon","properties":{"ZIP":"94585","PO_NAME":"SUISUN CITY","STATE":"CA","Area__":6221109968.49,"Length__":778597.007116},"arcs":[[[46,-73,-74,29,40,27,31,16,-75,4,35,44]],[[-76]],[[-77]],[[-78]],[[-79]]]},{"type":"Polygon","properties":{"ZIP":"94565","PO_NAME":"PITTSBURG","STATE":"CA","Area__":927254522.039,"Length__":219041.517359},"arcs":[[-80,21,73,-81,-82,-83,-84,-85]]},{"type":"Polygon","properties":{"ZIP":"94903","PO_NAME":"SAN RAFAEL","STATE":"CA","Area__":588314133.764,"Length__":162048.143345},"arcs":[[70,60,-86,-87,-88,-89]]},{"type":"Polygon","properties":{"ZIP":"94520","PO_NAME":"CONCORD","STATE":"CA","Area__":520757276.628,"Length__":156727.814209},"arcs":[[-90,-91,81,-92,-93,-94,-95]]},{"type":"Polygon","properties":{"ZIP":"94572","PO_NAME":"RODEO","STATE":"CA","Area__":127308919.604,"Length__":74714.505003},"arcs":[[-96,-97,-98,-99]]},{"type":"Polygon","properties":{"ZIP":"94525","PO_NAME":"CROCKETT","STATE":"CA","Area__":60697253.7729,"Length__":46562.4775763},"arcs":[[-100,-101,-102,96]]},{"type":"Polygon","properties":{"ZIP":"94569","PO_NAME":"PORT COSTA","STATE":"CA","Area__":20082184.3359,"Length__":29591.7901924},"arcs":[[-103,-104,100]]},{"type":"Polygon","properties":{"ZIP":"94553","PO_NAME":"MARTINEZ","STATE":"CA","Area__":1875385975.76,"Length__":280291.712466},"arcs":[[-105,-106,92,-107,102,99,95,-108,-109,-110,-111,-112,-113]]},{"type":"Polygon","properties":{"ZIP":"94547","PO_NAME":"HERCULES","STATE":"CA","Area__":160751632.708,"Length__":68087.3368349},"arcs":[[107,98,-114,-115]]},{"type":"Polygon","properties":{"ZIP":"94963","PO_NAME":"SAN GERONIMO","STATE":"CA","Area__":165024879.995,"Length__":86061.2085023},"arcs":[[-116,-117,-118,57,-119,-120]]},{"type":"Polygon","properties":{"ZIP":"94938","PO_NAME":"LAGUNITAS","STATE":"CA","Area__":36082456.9133,"Length__":44317.7673332},"arcs":[[-121,118,56,-122,115]]},{"type":"Polygon","properties":{"ZIP":"94509","PO_NAME":"ANTIOCH","STATE":"CA","Area__":571907805.207,"Length__":130696.500096},"arcs":[[67,22,79,-123,-124]]},{"type":"Polygon","properties":{"ZIP":"94960","PO_NAME":"SAN ANSELMO","STATE":"CA","Area__":191600460.277,"Length__":91510.0262324},"arcs":[[-125,-126,-127,86]]},{"type":"Polygon","properties":{"ZIP":"94513","PO_NAME":"BRENTWOOD","STATE":"CA","Area__":3255395680.47,"Length__":483845.895183},"arcs":[[65,-128,69,-129,122,84,-130,-131,-132,-133]]},{"type":"Polygon","properties":{"ZIP":"94521","PO_NAME":"CONCORD","STATE":"CA","Area__":633913436.484,"Length__":162303.752646},"arcs":[[-134,-135,-136,82,90,-137]]},{"type":"Polygon","properties":{"ZIP":"94930","PO_NAME":"FAIRFAX","STATE":"CA","Area__":795487038.384,"Length__":176279.977506},"arcs":[[85,59,-138,116,121,63,-139,-140,-141,124]]},{"type":"Polygon","properties":{"ZIP":"94973","PO_NAME":"WOODACRE","STATE":"CA","Area__":97586316.3544,"Length__":51398.6143934},"arcs":[[117,137,58]]},{"type":"Polygon","properties":{"ZIP":"94933","PO_NAME":"FOREST KNOLLS","STATE":"CA","Area__":28993184.8093,"Length__":24932.1289253},"arcs":[[119,120]]},{"type":"Polygon","properties":{"ZIP":"94564","PO_NAME":"PINOLE","STATE":"CA","Area__":125212206.272,"Length__":75741.6620845},"arcs":[[108,114,-142,-143,-144]]},{"type":"Polygon","properties":{"ZIP":"94801","PO_NAME":"RICHMOND","STATE":"CA","Area__":317898734.276,"Length__":172951.644713},"arcs":[[-145,-146,-147]]},{"type":"Polygon","properties":{"ZIP":"94519","PO_NAME":"CONCORD","STATE":"CA","Area__":161101090.005,"Length__":61143.2225279},"arcs":[[89,-148,136]]},{"type":"Polygon","properties":{"ZIP":"94806","PO_NAME":"SAN PABLO","STATE":"CA","Area__":225301944.051,"Length__":81845.4325884},"arcs":[[-149,-150,-151,142,-152,145]]},{"type":"Polygon","properties":{"ZIP":"94901","PO_NAME":"SAN RAFAEL","STATE":"CA","Area__":329395252.007,"Length__":137698.701402},"arcs":[[-153,-154,87,126,-155,-156]]},{"type":"Polygon","properties":{"ZIP":"94531","PO_NAME":"ANTIOCH","STATE":"CA","Area__":397825995.245,"Length__":114512.27089},"arcs":[[128,68,123]]},{"type":"Polygon","properties":{"ZIP":"94803","PO_NAME":"EL SOBRANTE","STATE":"CA","Area__":325420725.247,"Length__":98079.0928408},"arcs":[[-157,109,143,150,-158]]},{"type":"Polygon","properties":{"ZIP":"94523","PO_NAME":"PLEASANT HILL","STATE":"CA","Area__":202070432.339,"Length__":83822.0034009},"arcs":[[-159,93,105,-160,-161]]},{"type":"Polygon","properties":{"ZIP":"94518","PO_NAME":"CONCORD","STATE":"CA","Area__":148765460.651,"Length__":58899.0379129},"arcs":[[-162,-163,133,147,94,158]]},{"type":"MultiPolygon","properties":{"ZIP":"94904","PO_NAME":"GREENBRAE","STATE":"CA","Area__":124760438.805,"Length__":93937.51122},"arcs":[[[-164,-165,-166,154,125,140,-167]],[[-168,-169,-170]]]},{"type":"Polygon","properties":{"ZIP":"94549","PO_NAME":"LAFAYETTE","STATE":"CA","Area__":715541155.214,"Length__":209032.298331},"arcs":[[-171,-172,-173,-174,159,104,-175,-176,-177]]},{"type":"Polygon","properties":{"ZIP":"94517","PO_NAME":"CLAYTON","STATE":"CA","Area__":1500554144.37,"Length__":249312.336657},"arcs":[[129,83,135,-178,-179,-180,-181,-182]]},{"type":"Polygon","properties":{"ZIP":"94805","PO_NAME":"RICHMOND","STATE":"CA","Area__":54203030.6245,"Length__":50704.7322263},"arcs":[[-183,-184,157,149]]},{"type":"Polygon","properties":{"ZIP":"94804","PO_NAME":"RICHMOND","STATE":"CA","Area__":183177839.327,"Length__":118411.137621},"arcs":[[-185,-186,182,148,144,-187,-188]]},{"type":"MultiPolygon","properties":{"ZIP":"94939","PO_NAME":"LARKSPUR","STATE":"CA","Area__":57292596.1209,"Length__":59247.2763858},"arcs":[[[-189,167,-190,163,-191]],[[155,165,-192,-193]]]},{"type":"Polygon","properties":{"ZIP":"94964","PO_NAME":"SAN QUENTIN","STATE":"CA","Area__":13271259.5478,"Length__":18224.4940846},"arcs":[[152,192,-194]]},{"type":"Polygon","properties":{"ZIP":"94530","PO_NAME":"EL CERRITO","STATE":"CA","Area__":169161060.608,"Length__":81669.9240338},"arcs":[[-195,-196,-197,110,156,183,185]]},{"type":"Polygon","properties":{"ZIP":"94598","PO_NAME":"WALNUT CREEK","STATE":"CA","Area__":272017597.919,"Length__":76485.4828593},"arcs":[[-198,177,134,162]]},{"type":"Polygon","properties":{"ZIP":"94925","PO_NAME":"CORTE MADERA","STATE":"CA","Area__":92439243.1655,"Length__":62252.911912},"arcs":[[-199,-200,168,188,-201]]},{"type":"Polygon","properties":{"ZIP":"94596","PO_NAME":"WALNUT CREEK","STATE":"CA","Area__":287857985.526,"Length__":131670.261083},"arcs":[[-202,-203,178,197,161,160,173]]},{"type":"Polygon","properties":{"ZIP":"94941","PO_NAME":"MILL VALLEY","STATE":"CA","Area__":737837375.612,"Length__":187101.653358},"arcs":[[-204,-205,-206,-207,200,190,166,139,-208,-209]]},{"type":"Polygon","properties":{"ZIP":"94563","PO_NAME":"ORINDA","STATE":"CA","Area__":620751322.752,"Length__":170414.411787},"arcs":[[-210,-211,174,112,-212,-213,-214]]},{"type":"Polygon","properties":{"ZIP":"94708","PO_NAME":"BERKELEY","STATE":"CA","Area__":93749561.2773,"Length__":57103.8440235},"arcs":[[-215,211,111,196,-216,-217,-218]]},{"type":"Polygon","properties":{"ZIP":"94707","PO_NAME":"BERKELEY","STATE":"CA","Area__":48164525.3774,"Length__":41165.1690067},"arcs":[[-219,-220,215,195,-221]]},{"type":"Polygon","properties":{"ZIP":"94514","PO_NAME":"BYRON","STATE":"CA","Area__":2167869892.88,"Length__":285863.845766},"arcs":[[-222,131,-223]]},{"type":"Polygon","properties":{"ZIP":"94970","PO_NAME":"STINSON BEACH","STATE":"CA","Area__":32653826.2707,"Length__":51082.9777537},"arcs":[[208,-224]]},{"type":"Polygon","properties":{"ZIP":"94706","PO_NAME":"ALBANY","STATE":"CA","Area__":37048827.5676,"Length__":29800.7537341},"arcs":[[-225,220,194,184,-226,-227]]},{"type":"Polygon","properties":{"ZIP":"94710","PO_NAME":"BERKELEY","STATE":"CA","Area__":77089960.9892,"Length__":83425.2822454},"arcs":[[-228,-229,225,187,-230]]},{"type":"Polygon","properties":{"ZIP":"94595","PO_NAME":"WALNUT CREEK","STATE":"CA","Area__":152409891.3,"Length__":64758.8496277},"arcs":[[-231,201,172]]},{"type":"Polygon","properties":{"ZIP":"94709","PO_NAME":"BERKELEY","STATE":"CA","Area__":15499387.5023,"Length__":19530.661874},"arcs":[[-232,-233,216,219,-234]]},{"type":"Polygon","properties":{"ZIP":"94703","PO_NAME":"BERKELEY","STATE":"CA","Area__":38096533.8085,"Length__":35167.821257},"arcs":[[-235,-236,-237,-238,-239,233,218,224]]},{"type":"Polygon","properties":{"ZIP":"94704","PO_NAME":"BERKELEY","STATE":"CA","Area__":63505176.7551,"Length__":53493.6016455},"arcs":[[212,214,-240,231,238,-241]]},{"type":"Polygon","properties":{"ZIP":"94507","PO_NAME":"ALAMO","STATE":"CA","Area__":397900174.948,"Length__":157732.80871},"arcs":[[-242,179,202,230,171,-243,-244]]},{"type":"Polygon","properties":{"ZIP":"94702","PO_NAME":"BERKELEY","STATE":"CA","Area__":33198715.556,"Length__":31001.1628029},"arcs":[[226,228,-245,234]]},{"type":"Polygon","properties":{"ZIP":"94720","PO_NAME":"BERKELEY","STATE":"CA","Area__":20110702.5332,"Length__":21911.8449073},"arcs":[[239,217,232]]},{"type":"Polygon","properties":{"ZIP":"94965","PO_NAME":"SAUSALITO","STATE":"CA","Area__":318186613.429,"Length__":144932.249851},"arcs":[[204,-246]]},{"type":"Polygon","properties":{"ZIP":"94556","PO_NAME":"MORAGA","STATE":"CA","Area__":426346668.704,"Length__":120707.929057},"arcs":[[175,210,-247,-248]]},{"type":"MultiPolygon","properties":{"ZIP":"94920","PO_NAME":"BELVEDERE TIBURON","STATE":"CA","Area__":187081098.328,"Length__":105989.263884},"arcs":[[[198,206,-249]],[[-250]]]},{"type":"Polygon","properties":{"ZIP":"94705","PO_NAME":"BERKELEY","STATE":"CA","Area__":51854267.7298,"Length__":48080.6093518},"arcs":[[237,-251,-252,-253,240]]},{"type":"Polygon","properties":{"ZIP":"94611","PO_NAME":"OAKLAND","STATE":"CA","Area__":199585844.589,"Length__":115654.511733},"arcs":[[-254,-255,-256,213,252,-257,-258,-259]]},{"type":"Polygon","properties":{"ZIP":"94618","PO_NAME":"OAKLAND","STATE":"CA","Area__":80994168.872,"Length__":53734.5125607},"arcs":[[256,251,-260]]},{"type":"Polygon","properties":{"ZIP":"94609","PO_NAME":"OAKLAND","STATE":"CA","Area__":49183932.6274,"Length__":40265.9998042},"arcs":[[-261,-262,257,259,250,236]]},{"type":"Polygon","properties":{"ZIP":"94550","PO_NAME":"LIVERMORE","STATE":"CA","Area__":10415769977.1,"Length__":661470.75573},"arcs":[[-263,-264,222,130,181,-265,-266,-267,-268,-269]]},{"type":"Polygon","properties":{"ZIP":"94608","PO_NAME":"EMERYVILLE","STATE":"CA","Area__":76433732.1928,"Length__":60472.2440741},"arcs":[[-270,-271,260,235,244,227,-272]]},{"type":"Polygon","properties":{"ZIP":"94528","PO_NAME":"DIABLO","STATE":"CA","Area__":22750199.9075,"Length__":22467.6090256},"arcs":[[-273,243,-274]]},{"type":"Polygon","properties":{"ZIP":"94526","PO_NAME":"DANVILLE","STATE":"CA","Area__":384031417.862,"Length__":110945.227243},"arcs":[[-275,273,242,170,-276]]},{"type":"Polygon","properties":{"ZIP":"94506","PO_NAME":"DANVILLE","STATE":"CA","Area__":770154884.117,"Length__":148795.957654},"arcs":[[264,180,241,272,274,-277,-278,-279]]},{"type":"Polygon","properties":{"ZIP":"94130","PO_NAME":"SAN FRANCISCO","STATE":"CA","Area__":24630981.5595,"Length__":33500.673654},"arcs":[[-280]]},{"type":"Polygon","properties":{"ZIP":"94607","PO_NAME":"OAKLAND","STATE":"CA","Area__":167850803.207,"Length__":101303.424694},"arcs":[[-281,-282,269,-283]]},{"type":"Polygon","properties":{"ZIP":"94610","PO_NAME":"OAKLAND","STATE":"CA","Area__":56926956.9701,"Length__":51256.873313},"arcs":[[-284,253,-285,-286]]},{"type":"Polygon","properties":{"ZIP":"94583","PO_NAME":"SAN RAMON","STATE":"CA","Area__":735599560.505,"Length__":177252.498937},"arcs":[[276,275,176,247,-287,-288,-289]]},{"type":"Polygon","properties":{"ZIP":"94602","PO_NAME":"OAKLAND","STATE":"CA","Area__":88000514.6746,"Length__":55325.9551171},"arcs":[[-290,-291,-292,254,283,-293]]},{"type":"Polygon","properties":{"ZIP":"94612","PO_NAME":"OAKLAND","STATE":"CA","Area__":31234990.6919,"Length__":28335.5840323},"arcs":[[284,258,261,270,281,-294]]},{"type":"Polygon","properties":{"ZIP":"94546","PO_NAME":"CASTRO VALLEY","STATE":"CA","Area__":745100378.629,"Length__":184165.028046},"arcs":[[-295,-296,-297,286,246,209,255,291,-298,-299,-300]]},{"type":"MultiPolygon","properties":{"ZIP":"94133","PO_NAME":"SAN FRANCISCO","STATE":"CA","Area__":21552448.565,"Length__":43114.3623601},"arcs":[[[-301,-302,-303,-304]],[[-305]]]},{"type":"Polygon","properties":{"ZIP":"94129","PO_NAME":"SAN FRANCISCO","STATE":"CA","Area__":66147462.778,"Length__":36589.1009263},"arcs":[[-306,-307,-308,-309,-310]]},{"type":"Polygon","properties":{"ZIP":"94123","PO_NAME":"SAN FRANCISCO","STATE":"CA","Area__":31602774.7513,"Length__":38751.4051836},"arcs":[[-311,-312,-313,308]]},{"type":"Polygon","properties":{"ZIP":"94109","PO_NAME":"SAN FRANCISCO","STATE":"CA","Area__":29239810.9534,"Length__":30323.9485551},"arcs":[[-314,300,-315,311,-316,-317]]},{"type":"Polygon","properties":{"ZIP":"94606","PO_NAME":"OAKLAND","STATE":"CA","Area__":65624024.3142,"Length__":49895.4881935},"arcs":[[-318,-319,292,285,293,280]]},{"type":"Polygon","properties":{"ZIP":"94111","PO_NAME":"SAN FRANCISCO","STATE":"CA","Area__":9973098.48964,"Length__":31453.7823665},"arcs":[[-320,-321,302,-322,-323]]},{"type":"Polygon","properties":{"ZIP":"94619","PO_NAME":"OAKLAND","STATE":"CA","Area__":130659944.931,"Length__":80525.7205127},"arcs":[[-324,-325,-326,-327,297,290]]},{"type":"Polygon","properties":{"ZIP":"94552","PO_NAME":"CASTRO VALLEY","STATE":"CA","Area__":1247859768.36,"Length__":279906.218269},"arcs":[[-328,-329,-330,-331,-332,287,296,-333,-334,-335]]},{"type":"MultiPolygon","properties":{"ZIP":"94501","PO_NAME":"ALAMEDA","STATE":"CA","Area__":227432934.96,"Length__":116720.49058},"arcs":[[[-336]],[[-337]],[[-338]]]},{"type":"Polygon","properties":{"ZIP":"94108","PO_NAME":"SAN FRANCISCO","STATE":"CA","Area__":7705084.55127,"Length__":14174.1118291},"arcs":[[-339,-340,321,301,313,-341,-342]]},{"type":"Polygon","properties":{"ZIP":"94601","PO_NAME":"OAKLAND","STATE":"CA","Area__":92237133.018,"Length__":41843.3658591},"arcs":[[323,289,318,-343,-344,-345]]},{"type":"Polygon","properties":{"ZIP":"94115","PO_NAME":"SAN FRANCISCO","STATE":"CA","Area__":30561656.884,"Length__":24300.4390242},"arcs":[[-346,315,310,307,-347,-348]]},{"type":"Polygon","properties":{"ZIP":"94105","PO_NAME":"SAN FRANCISCO","STATE":"CA","Area__":12382882.0355,"Length__":26722.9849804},"arcs":[[-349,-350,-351,319,-352,338]]},{"type":"Polygon","properties":{"ZIP":"94104","PO_NAME":"SAN FRANCISCO","STATE":"CA","Area__":1960457.72451,"Length__":7187.00437443},"arcs":[[351,322,339]]},{"type":"Polygon","properties":{"ZIP":"94118","PO_NAME":"SAN FRANCISCO","STATE":"CA","Area__":46128646.0967,"Length__":31063.6615541},"arcs":[[-353,346,306,-354,-355]]},{"type":"Polygon","properties":{"ZIP":"94121","PO_NAME":"SAN FRANCISCO","STATE":"CA","Area__":60790379.5089,"Length__":34650.0403968},"arcs":[[353,305,-356,-357]]},{"type":"Polygon","properties":{"ZIP":"94102","PO_NAME":"SAN FRANCISCO","STATE":"CA","Area__":18740654.0256,"Length__":23624.3085968},"arcs":[[340,316,345,-358,-359,-360]]},{"type":"Polygon","properties":{"ZIP":"94103","PO_NAME":"SAN FRANCISCO","STATE":"CA","Area__":36906106.5495,"Length__":33638.9331596},"arcs":[[-361,-362,348,341,359,-363]]},{"type":"Polygon","properties":{"ZIP":"94605","PO_NAME":"OAKLAND","STATE":"CA","Area__":242614081.222,"Length__":89849.3753694},"arcs":[[-364,-365,298,326,-366,324,344,-367]]},{"type":"Polygon","properties":{"ZIP":"94613","PO_NAME":"OAKLAND","STATE":"CA","Area__":6697136.50357,"Length__":11861.4134949},"arcs":[[365,325]]},{"type":"Polygon","properties":{"ZIP":"94117","PO_NAME":"SAN FRANCISCO","STATE":"CA","Area__":33954482.7702,"Length__":33260.7442902},"arcs":[[-368,-369,357,347,352,-370]]},{"type":"Polygon","properties":{"ZIP":"94122","PO_NAME":"SAN FRANCISCO","STATE":"CA","Area__":115396029.783,"Length__":52028.9664001},"arcs":[[369,354,356,-371,-372,-373]]},{"type":"Polygon","properties":{"ZIP":"94621","PO_NAME":"OAKLAND","STATE":"CA","Area__":239083047.007,"Length__":128361.705105},"arcs":[[-374,-375,-376,-377,366,343,-378]]},{"type":"Polygon","properties":{"ZIP":"94114","PO_NAME":"SAN FRANCISCO","STATE":"CA","Area__":40823946.739,"Length__":38323.361765},"arcs":[[-379,362,358,368,-380]]},{"type":"MultiPolygon","properties":{"ZIP":"94107","PO_NAME":"SAN FRANCISCO","STATE":"CA","Area__":66294329.949,"Length__":72456.4318386},"arcs":[[[349,361,-381,-382,-383]]]},{"type":"Polygon","properties":{"ZIP":"94110","PO_NAME":"SAN FRANCISCO","STATE":"CA","Area__":66887406.7173,"Length__":41644.5510172},"arcs":[[-384,-385,-386,380,360,378,-387]]},{"type":"Polygon","properties":{"ZIP":"94131","PO_NAME":"SAN FRANCISCO","STATE":"CA","Area__":62041183.5838,"Length__":57011.7832824},"arcs":[[386,379,367,372,-388,-389,-390]]},{"type":"Polygon","properties":{"ZIP":"94603","PO_NAME":"OAKLAND","STATE":"CA","Area__":77980129.4047,"Length__":57224.9078272},"arcs":[[-391,363,376]]},{"type":"Polygon","properties":{"ZIP":"94116","PO_NAME":"SAN FRANCISCO","STATE":"CA","Area__":73713578.4373,"Length__":42635.9553171},"arcs":[[-392,-393,387,371,-394]]},{"type":"Polygon","properties":{"ZIP":"94124","PO_NAME":"SAN FRANCISCO","STATE":"CA","Area__":136997620.418,"Length__":114072.475164},"arcs":[[-395,-396,381,385,-397]]},{"type":"Polygon","properties":{"ZIP":"94588","PO_NAME":"PLEASANTON","STATE":"CA","Area__":739157650.571,"Length__":188209.142551},"arcs":[[330,-398,-399,265,278,-400]]},{"type":"Polygon","properties":{"ZIP":"94502","PO_NAME":"ALAMEDA","STATE":"CA","Area__":69205104.5972,"Length__":32993.2120455},"arcs":[[-401,373]]},{"type":"Polygon","properties":{"ZIP":"94127","PO_NAME":"SAN FRANCISCO","STATE":"CA","Area__":46522319.0828,"Length__":37097.2567363},"arcs":[[-402,388,392,-403]]},{"type":"Polygon","properties":{"ZIP":"94577","PO_NAME":"SAN LEANDRO","STATE":"CA","Area__":224770222.046,"Length__":121640.650145},"arcs":[[299,364,390,375,-404,-405,-406]]},{"type":"Polygon","properties":{"ZIP":"94132","PO_NAME":"SAN FRANCISCO","STATE":"CA","Area__":112727175.099,"Length__":52755.1532284},"arcs":[[-407,-408,402,391,-409,-410]]},{"type":"Polygon","properties":{"ZIP":"94112","PO_NAME":"SAN FRANCISCO","STATE":"CA","Area__":92226023.9877,"Length__":57996.3187634},"arcs":[[383,389,401,407,-411,-412]]},{"type":"Polygon","properties":{"ZIP":"94134","PO_NAME":"SAN FRANCISCO","STATE":"CA","Area__":67516008.0857,"Length__":44866.5215478},"arcs":[[411,-413,-414,396,384]]},{"type":"Polygon","properties":{"ZIP":"94568","PO_NAME":"DUBLIN","STATE":"CA","Area__":219804722.229,"Length__":84093.252044},"arcs":[[331,399,277,288]]},{"type":"Polygon","properties":{"ZIP":"94578","PO_NAME":"SAN LEANDRO","STATE":"CA","Area__":125334185.735,"Length__":81210.6463023},"arcs":[[-415,-416,294,405,-417]]},{"type":"Polygon","properties":{"ZIP":"94015","PO_NAME":"DALY CITY","STATE":"CA","Area__":159483452.372,"Length__":75079.2856064},"arcs":[[-418,-419,409,-420,-421]]},{"type":"Polygon","properties":{"ZIP":"94005","PO_NAME":"BRISBANE","STATE":"CA","Area__":132357364.26,"Length__":67781.5039169},"arcs":[[394,413,-422,-423,-424]]},{"type":"Polygon","properties":{"ZIP":"94014","PO_NAME":"DALY CITY","STATE":"CA","Area__":181555330.136,"Length__":81604.6288525},"arcs":[[421,412,410,406,418,-425]]},{"type":"Polygon","properties":{"ZIP":"94579","PO_NAME":"SAN LEANDRO","STATE":"CA","Area__":83767507.7715,"Length__":51133.1508367},"arcs":[[416,404,-426,-427]]},{"type":"Polygon","properties":{"ZIP":"94580","PO_NAME":"SAN LORENZO","STATE":"CA","Area__":110040203.708,"Length__":69329.4125512},"arcs":[[-428,-429,414,426,-430]]},{"type":"Polygon","properties":{"ZIP":"94541","PO_NAME":"HAYWARD","STATE":"CA","Area__":199794016.621,"Length__":105832.83647},"arcs":[[332,295,415,428,-431,-432,-433]]},{"type":"Polygon","properties":{"ZIP":"94566","PO_NAME":"PLEASANTON","STATE":"CA","Area__":687209602.804,"Length__":134627.73765},"arcs":[[266,398,-434]]},{"type":"Polygon","properties":{"ZIP":"94542","PO_NAME":"HAYWARD","STATE":"CA","Area__":192100132.832,"Length__":103223.677809},"arcs":[[333,432,-435,-436]]},{"type":"Polygon","properties":{"ZIP":"94544","PO_NAME":"HAYWARD","STATE":"CA","Area__":292946682.044,"Length__":109190.191481},"arcs":[[-437,434,431,-438]]},{"type":"Polygon","properties":{"ZIP":"94044","PO_NAME":"PACIFICA","STATE":"CA","Area__":402788971.601,"Length__":123465.9436},"arcs":[[-439,-440,-441,-442,420,-443]]},{"type":"Polygon","properties":{"ZIP":"94545","PO_NAME":"HAYWARD","STATE":"CA","Area__":357948604.476,"Length__":100977.934102},"arcs":[[-444,437,430,427,-445]]},{"type":"Polygon","properties":{"ZIP":"94586","PO_NAME":"SUNOL","STATE":"CA","Area__":694082337.889,"Length__":243362.254252},"arcs":[[267,433,397,329,-446,-447]]},{"type":"MultiPolygon","properties":{"ZIP":"94080","PO_NAME":"SOUTH SAN FRANCISCO","STATE":"CA","Area__":276672297.438,"Length__":153445.723976},"arcs":[[[422,424,417,441,-448,-449,-450]],[[-451,-452]]]},{"type":"Polygon","properties":{"ZIP":"94587","PO_NAME":"UNION CITY","STATE":"CA","Area__":794418080.846,"Length__":217359.34094},"arcs":[[-453,334,435,436,443,-454,-455]]},{"type":"Polygon","properties":{"ZIP":"94066","PO_NAME":"SAN BRUNO","STATE":"CA","Area__":198460889.237,"Length__":88744.8854886},"arcs":[[-456,-457,-458,447,440]]},{"type":"Polygon","properties":{"ZIP":"94128","PO_NAME":"SAN FRANCISCO","STATE":"CA","Area__":89778765.1119,"Length__":57489.9702056},"arcs":[[457,-459,-460,451,-461,448]]},{"type":"Polygon","properties":{"ZIP":"94019","PO_NAME":"HALF MOON BAY","STATE":"CA","Area__":2041953704.43,"Length__":318646.576267},"arcs":[[-462,-463,-464,-465,-466,455,439,-467]]},{"type":"Polygon","properties":{"ZIP":"94030","PO_NAME":"MILLBRAE","STATE":"CA","Area__":95661190.4102,"Length__":54644.6509188},"arcs":[[465,-468,-469,458,456]]},{"type":"Polygon","properties":{"ZIP":"94010","PO_NAME":"BURLINGAME","STATE":"CA","Area__":359016202.637,"Length__":141377.757027},"arcs":[[-470,-471,-472,467,464]]},{"type":"Polygon","properties":{"ZIP":"94536","PO_NAME":"FREMONT","STATE":"CA","Area__":396695472.314,"Length__":106065.8214},"arcs":[[-473,-474,-475,327,452,-476]]},{"type":"Polygon","properties":{"ZIP":"94539","PO_NAME":"FREMONT","STATE":"CA","Area__":824046204.322,"Length__":155729.115904},"arcs":[[445,328,474,-477,-478]]},{"type":"Polygon","properties":{"ZIP":"94401","PO_NAME":"SAN MATEO","STATE":"CA","Area__":84012885.9011,"Length__":68467.7009352},"arcs":[[-479,470,-480,-481]]},{"type":"Polygon","properties":{"ZIP":"94555","PO_NAME":"FREMONT","STATE":"CA","Area__":334592279.092,"Length__":110201.483245},"arcs":[[475,454,-482,-483]]},{"type":"Polygon","properties":{"ZIP":"94038","PO_NAME":"MOSS BEACH","STATE":"CA","Area__":194126795.291,"Length__":87098.6697155},"arcs":[[466,438,-484]]},{"type":"Polygon","properties":{"ZIP":"94402","PO_NAME":"SAN MATEO","STATE":"CA","Area__":140943163.742,"Length__":125898.272739},"arcs":[[463,-485,-486,-487,479,469]]},{"type":"MultiPolygon","properties":{"ZIP":"94404","PO_NAME":"SAN MATEO","STATE":"CA","Area__":136283387.409,"Length__":60618.0394201},"arcs":[[[-488,-489,-490]]]},{"type":"Polygon","properties":{"ZIP":"94403","PO_NAME":"SAN MATEO","STATE":"CA","Area__":154142007.977,"Length__":83184.0719141},"arcs":[[486,-491,489,-492,480]]},{"type":"Polygon","properties":{"ZIP":"94538","PO_NAME":"FREMONT","STATE":"CA","Area__":637942800.938,"Length__":170982.207431},"arcs":[[473,-493,-494,-495,-496,476]]},{"type":"Polygon","properties":{"ZIP":"94560","PO_NAME":"NEWARK","STATE":"CA","Area__":548993704.962,"Length__":115655.008669},"arcs":[[492,472,482,-497]]},{"type":"Polygon","properties":{"ZIP":"94065","PO_NAME":"REDWOOD CITY","STATE":"CA","Area__":71850210.7003,"Length__":45567.4308222},"arcs":[[-498,-499,-500]]},{"type":"Polygon","properties":{"ZIP":"94063","PO_NAME":"REDWOOD CITY","STATE":"CA","Area__":358663813.647,"Length__":122228.604855},"arcs":[[-501,-502,-503,-504,-505,-506]]},{"type":"Polygon","properties":{"ZIP":"94002","PO_NAME":"BELMONT","STATE":"CA","Area__":163210029.225,"Length__":86346.4872109},"arcs":[[-507,-508,498,-509,487,490,485]]},{"type":"Polygon","properties":{"ZIP":"94070","PO_NAME":"SAN CARLOS","STATE":"CA","Area__":191633849.315,"Length__":99300.2264511},"arcs":[[507,-510,504,-511,499]]},{"type":"Polygon","properties":{"ZIP":"94062","PO_NAME":"REDWOOD CITY","STATE":"CA","Area__":2346924897.49,"Length__":430979.71729},"arcs":[[-512,-513,-514,-515,505,509,506,484,462,-516]]},{"type":"Polygon","properties":{"ZIP":"94025","PO_NAME":"MENLO PARK","STATE":"CA","Area__":336079222.289,"Length__":182065.992187},"arcs":[[-517,-518,-519,-520,-521,502,-522,512]]},{"type":"Polygon","properties":{"ZIP":"94303","PO_NAME":"PALO ALTO","STATE":"CA","Area__":235585704.525,"Length__":117478.534111},"arcs":[[-523,-524,519,-525,-526]]},{"type":"Polygon","properties":{"ZIP":"95035","PO_NAME":"MILPITAS","STATE":"CA","Area__":1364207061.4,"Length__":238038.079652},"arcs":[[-527,-528,268,446,477,495,-529]]},{"type":"Polygon","properties":{"ZIP":"95140","PO_NAME":"MOUNT HAMILTON","STATE":"CA","Area__":4411080490.84,"Length__":475929.742084},"arcs":[[262,527,-530]]},{"type":"Polygon","properties":{"ZIP":"94061","PO_NAME":"REDWOOD CITY","STATE":"CA","Area__":102796125.021,"Length__":55830.9217316},"arcs":[[-531,500,514]]},{"type":"Polygon","properties":{"ZIP":"94027","PO_NAME":"ATHERTON","STATE":"CA","Area__":140097694.009,"Length__":81316.3112471},"arcs":[[521,501,530,513]]},{"type":"Polygon","properties":{"ZIP":"95134","PO_NAME":"SAN JOSE","STATE":"CA","Area__":310894471.547,"Length__":121395.240015},"arcs":[[528,494,-532,-533,-534]]},{"type":"Polygon","properties":{"ZIP":"95002","PO_NAME":"ALVISO","STATE":"CA","Area__":124021403.986,"Length__":62725.5965353},"arcs":[[532,-535,-536,-537]]},{"type":"Polygon","properties":{"ZIP":"94089","PO_NAME":"SUNNYVALE","STATE":"CA","Area__":340216933.276,"Length__":98461.3812781},"arcs":[[-538,-539,-540,535,-541,-542]]},{"type":"Polygon","properties":{"ZIP":"94301","PO_NAME":"PALO ALTO","STATE":"CA","Area__":67843191.3691,"Length__":46139.9464212},"arcs":[[-543,524,518,-544,-545]]},{"type":"Polygon","properties":{"ZIP":"94043","PO_NAME":"MOUNTAIN VIEW","STATE":"CA","Area__":236420743.019,"Length__":99619.6281428},"arcs":[[-546,541,-547,522,-548,-549,-550,-551,-552]]},{"type":"Polygon","properties":{"ZIP":"94304","PO_NAME":"PALO ALTO","STATE":"CA","Area__":238521898.021,"Length__":123597.036904},"arcs":[[-553,543,517,-554,-555,-556]]},{"type":"Polygon","properties":{"ZIP":"94305","PO_NAME":"STANFORD","STATE":"CA","Area__":66724187.1566,"Length__":39866.8864734},"arcs":[[552,-557,544]]},{"type":"Polygon","properties":{"ZIP":"94035","PO_NAME":"MOUNTAIN VIEW","STATE":"CA","Area__":81838750.6637,"Length__":54976.9004785},"arcs":[[537,545,-558]]},{"type":"Polygon","properties":{"ZIP":"94306","PO_NAME":"PALO ALTO","STATE":"CA","Area__":105299923.256,"Length__":80011.6572953},"arcs":[[-559,547,525,542,556,555,-560]]},{"type":"Polygon","properties":{"ZIP":"94028","PO_NAME":"PORTOLA VALLEY","STATE":"CA","Area__":373196294.315,"Length__":125210.307554},"arcs":[[-561,553,516,511,-562]]},{"type":"Polygon","properties":{"ZIP":"94040","PO_NAME":"MOUNTAIN VIEW","STATE":"CA","Area__":98758319.3063,"Length__":79856.1978324},"arcs":[[-563,548,558,-564,-565,-566,-567]]},{"type":"Polygon","properties":{"ZIP":"94022","PO_NAME":"LOS ALTOS","STATE":"CA","Area__":421136511.963,"Length__":137369.776481},"arcs":[[563,559,554,560,-568,-569]]},{"type":"Polygon","properties":{"ZIP":"94085","PO_NAME":"SUNNYVALE","STATE":"CA","Area__":90547918.2037,"Length__":47415.8604564},"arcs":[[538,557,551,-570,-571]]},{"type":"Polygon","properties":{"ZIP":"94086","PO_NAME":"SUNNYVALE","STATE":"CA","Area__":128943089.822,"Length__":65560.3615426},"arcs":[[566,-572,-573,569,550,-574]]},{"type":"Polygon","properties":{"ZIP":"94024","PO_NAME":"LOS ALTOS","STATE":"CA","Area__":296697315.102,"Length__":136286.64298},"arcs":[[568,-575,-576,564]]},{"type":"Polygon","properties":{"ZIP":"94087","PO_NAME":"SUNNYVALE","STATE":"CA","Area__":184336949.571,"Length__":74339.9480362},"arcs":[[575,-577,571,565]]}]}},"arcs":[[[2551,6949],[70,64],[-149,95],[-5,67],[-42,22],[-150,101],[46,59],[29,-17],[3,11],[54,59],[-22,60],[-65,11],[139,0],[246,-33],[46,41],[-9,21],[21,52],[20,9],[9,-7],[101,-28],[97,39],[-52,100],[20,3],[35,-6],[42,4],[114,-45],[36,-9],[17,13],[65,1],[40,17],[9,16],[164,32],[58,-17],[187,-15],[25,100],[210,15],[78,-66],[75,-3],[29,48],[36,40],[13,8],[52,-6],[34,-16],[35,-4],[-3,89],[-161,115],[-124,0],[-92,34],[-317,405],[28,-6],[29,6],[0,13],[15,22],[30,3],[31,-6],[10,8],[39,-9],[0,88],[-14,-16],[-91,14],[29,42],[-130,105],[19,12],[-124,61],[-1,6],[-319,243],[-30,6],[-64,73],[12,35],[-77,174],[-90,-13],[7,118],[91,30],[-56,23],[57,145],[173,9],[45,91],[-191,225],[-15,22],[60,47],[20,-30],[69,-56],[49,-14],[16,-16],[162,-64],[42,27],[100,27],[72,-14],[209,-22],[89,-168],[96,-71],[73,-282],[146,-105],[42,-244],[57,-16],[98,-52],[23,-134],[129,-61],[96,-10],[11,-85],[24,-32],[-41,-32],[-7,-78],[100,30],[107,-88],[118,-373],[120,-227],[-20,-118],[-181,-388],[304,-322]],[[2779,6800],[-20,29],[-106,62],[-44,4],[-62,50],[4,4]],[[3607,5948],[-29,62],[25,1],[33,-7],[33,8],[0,15],[-28,-1],[-1,38],[53,24],[48,5],[12,25],[11,45],[-8,1],[10,33],[0,89],[-5,21],[29,9],[9,76],[48,-5],[16,-72],[126,10],[33,26],[22,3],[1,25],[61,-2],[17,16],[32,10],[-41,54],[-35,-4],[3,18],[-24,2],[-5,-24],[-15,-3],[-25,7],[-33,-8],[-20,9],[49,12],[4,12],[-20,-7],[-45,13],[-31,-6],[-34,1],[0,13],[-25,3],[-20,12],[86,-10],[16,8],[3,14],[33,0],[-20,38],[4,6],[-32,7],[-16,-18],[-12,23],[-126,-2],[-134,-21],[-4,-6],[16,-54],[-3,-29],[22,-109],[-4,-65],[-27,-39],[-17,4],[-52,5],[-41,11],[-16,33],[12,6],[-15,21],[6,24],[-36,43],[7,-20],[-51,-48],[-25,25],[-40,-10],[-16,3],[-33,-5],[-37,17],[-89,70],[-104,39],[-74,121],[-44,24],[-13,44],[-13,26],[30,25],[-21,22],[-41,6],[24,60],[-112,1],[-41,22],[-9,-19]],[[4337,5946],[-284,79],[-69,-2],[-8,-23],[-20,10],[5,-145],[-59,-7],[-292,90],[-3,0]],[[5211,6981],[-251,-93],[-87,2],[-57,-4],[1,-212],[41,-83],[-278,6],[-154,0],[-26,-1],[-13,-62],[10,-25],[-20,-1],[-19,-42],[102,-141],[-167,6],[-38,-61],[27,-19],[49,-3],[92,-12],[-15,-38],[-80,-3],[-34,12],[-1,-28],[20,-21],[21,2],[84,-129],[-24,-47],[11,-23],[-47,-6],[-21,-9]],[[3105,7013],[23,5],[8,14],[14,48],[11,3],[21,-35],[52,24],[-12,24],[44,25],[17,-18],[44,28],[-44,38],[28,20],[-36,31],[40,25],[-60,24],[-67,-3],[-32,14],[-11,13],[-41,7],[-62,-25],[38,-47],[-33,-23],[16,-21],[-60,-38],[60,-82],[41,-5],[1,-46]],[[6985,6386],[92,2],[5,130],[3,168],[-528,20],[3,55],[22,432],[-20,4],[31,18],[-61,35],[-64,98],[-28,8],[-4,68],[-172,2],[-6,44],[183,-2],[2,44],[-59,1],[0,196],[-22,23],[-32,-9],[-102,167],[21,26],[16,5],[25,-2],[48,-16],[61,-7],[15,2],[77,-3],[66,18],[54,7],[27,23],[33,8],[72,-8],[18,4],[41,-10],[30,7],[79,-9],[291,-74],[78,11],[32,-1],[62,-25],[15,1],[7,26],[75,26],[29,-5],[7,-31],[43,3],[51,21],[43,7],[55,51],[14,-11],[46,-13],[48,0],[37,-8],[65,20],[11,-14],[16,1],[9,-17],[41,-39],[42,0],[-3,-50],[75,-5],[86,-31],[141,-9],[7,-4],[71,35],[68,-23],[12,6],[134,-8],[0,13],[163,-1],[-6,-259],[30,0],[-402,-721],[-11,-31],[-39,-60],[-55,-173]],[[8299,6543],[-286,6],[-23,-296],[32,-53],[37,-16],[-8,-80],[88,-58],[-65,34],[-40,38],[-44,0],[-21,17],[-44,-2],[-15,7],[-17,-5],[-22,22],[-26,1],[-58,13],[-16,39],[-33,-12],[-44,0],[-21,17],[-43,-2],[-11,16],[-24,-2],[-7,-11],[-329,13],[-175,-42],[-75,88],[48,44],[-72,67]],[[2779,6800],[25,-39],[20,6],[40,-31],[-7,-16],[12,-14],[20,-58],[19,9],[79,-105],[-25,-8],[-33,-20],[-1,-21],[14,-55],[-28,-46],[49,-56],[69,13],[-14,-88],[73,-57],[66,-5],[-5,-19],[25,0],[57,-149],[-1,-97],[41,-28],[13,-24],[-5,-38],[-53,35],[-19,-21],[31,-35],[-22,-46],[-62,13],[-8,-72],[25,-45],[-29,-41],[-156,16],[-117,-14],[1,-12]],[[1712,6707],[52,7],[-3,6],[85,8],[142,45],[-34,-31],[50,-56],[0,17],[50,-14],[19,48],[30,2],[23,-5],[35,14],[-12,21],[115,23],[31,-29],[35,29],[55,-2],[25,22],[-20,4],[20,19],[1,32],[16,-5],[3,15],[34,42],[-1,28],[48,2],[17,31],[19,-8],[4,-23]],[[2502,5398],[59,103],[-26,10],[74,49],[-141,201],[-395,187],[-33,105],[-48,57],[102,43],[85,-2],[41,55],[-17,-4],[-76,12],[-8,27],[-31,32],[-170,65],[-133,114],[29,44],[-52,57],[-14,72],[-41,28],[5,54]],[[2873,5632],[-4,0],[57,-101],[-370,-143],[-54,10]],[[3607,5948],[-13,-27],[-19,-14],[33,2],[-9,-9],[-36,1],[-20,-18],[15,-86],[36,-21],[78,-19],[16,-60],[-3,-79]],[[2877,5631],[-4,1]],[[3685,5618],[-33,0],[-300,6],[-198,2],[-1,-20],[-119,25],[-157,0]],[[5379,6667],[14,16],[9,31],[60,18],[55,-39],[100,13],[22,-63],[50,-7],[4,47],[33,3],[-9,39],[16,16],[81,4],[-10,-70],[-21,0],[-2,-93],[245,-2],[1,-77],[4,-8],[0,-108],[72,32],[58,47],[22,27],[9,-2]],[[5989,6267],[-93,1],[-3,-73],[-126,2],[3,68],[-29,-13],[-2,-15],[-15,0],[-2,-16],[-20,0],[2,15],[-76,-32],[-101,-50],[-16,-13],[-30,-47],[-109,2],[-29,-4],[-85,-30],[0,11],[-53,-1],[-3,69],[88,29],[-3,34],[-17,3],[-22,23],[-1,21],[-14,13],[2,42],[-24,3],[3,17],[-61,22],[-20,34],[-65,-14],[-23,41],[52,18],[24,64],[53,55],[-29,43],[207,0],[-21,15],[49,55],[-1,8]],[[6192,6491],[-8,-20],[20,-30],[57,-40],[-33,0],[-3,-31],[-94,0],[-17,7],[-15,-25],[-4,-40],[-105,2],[-1,-47]],[[1623,5837],[8,8],[-23,50],[-13,69],[-86,-4],[-64,102],[-24,17],[3,10],[-21,9],[-39,53],[-25,45],[-16,13],[-62,29],[-25,-15],[-26,23],[-31,11],[-18,12],[-22,6],[13,10],[-145,77],[-22,12],[-24,19],[61,60],[16,-8],[20,36],[24,1],[37,15],[8,15],[-37,19],[58,55],[17,-5],[40,36],[88,-39],[128,104],[-13,15],[150,25],[-8,22],[48,17],[105,-56],[9,2]],[[2281,5352],[-21,7],[-76,14],[-35,27],[-27,40],[-12,45],[-17,34],[-48,43],[-69,28],[-50,35],[-44,40],[-25,-9],[-73,22],[50,51],[-73,-1],[-11,27],[-26,20],[19,30],[-51,37],[8,-16],[-16,-9],[-8,22],[-53,-2]],[[2502,5398],[-184,-20],[-37,-26]],[[6996,4806],[-53,51],[-24,88],[-66,71],[-85,16]],[[7561,4792],[-14,0],[-162,-53],[-85,-8],[-88,20],[-98,-4],[-118,59]],[[8058,5151],[-19,-9],[24,-97],[-21,-55],[-171,-86],[-113,-36],[-105,-63],[-92,-4],[0,-9]],[[8299,6543],[422,-4],[12,-2],[-42,-18],[6,-19],[-17,-16],[0,-16],[-37,-31],[8,-35],[-8,-24],[-16,-4],[-183,39],[-81,-28],[37,-73],[-45,-76],[-54,-24],[-27,-74],[-80,-60],[-9,-37],[-45,-26],[86,-111],[47,-15],[-23,-148],[-46,-15],[-19,-26],[-21,-17],[-56,-55],[-57,-31],[60,-25],[-11,1],[-90,-200],[49,0],[1,-122],[-13,-99],[11,-1]],[[6553,6394],[432,-8]],[[6415,6243],[5,19],[166,106],[-33,26]],[[7190,5755],[12,356],[-759,14],[-28,118]],[[6606,5401],[68,-1],[1,15],[28,3],[12,26],[229,-5],[226,131],[20,185]],[[6768,5032],[8,23],[-12,8],[44,9],[22,95],[24,-34],[125,-27],[17,113],[-171,-6],[8,-31],[-117,-9],[-41,15],[-15,0],[-35,68],[27,39],[-15,36],[-6,44],[-25,26]],[[6192,6491],[100,-2],[-2,45],[132,-4],[2,-133],[129,-3]],[[6415,6243],[-52,-27],[-9,-43],[-77,-3],[-52,-19],[0,-20],[-73,0],[-57,-35],[-15,29],[-55,8],[4,69],[-35,0],[-8,23],[3,42]],[[3742,5617],[-57,1]],[[4252,5609],[-280,3],[-16,3],[-117,1],[-32,-6],[-21,8],[-44,-1]],[[4391,5606],[-139,3]],[[4337,5946],[227,-23],[115,6],[0,-32],[-103,-83],[-36,-16],[-40,-8],[-141,-93],[40,-32],[-32,-26],[24,-33]],[[2281,5352],[-6,-14],[16,-39]],[[1375,5431],[62,109],[3,55],[21,-3],[31,10],[21,-13],[21,6],[-17,135],[-66,37],[-67,8],[-32,22],[15,22],[78,-15],[84,49],[21,-8],[73,-8]],[[1896,5139],[-10,18],[-117,99],[-20,-11],[-25,3],[5,18],[-26,1],[-10,20],[11,13],[28,-15],[-43,38],[-2,13],[-16,-9],[-24,23],[-19,-5],[-78,31],[15,16],[-40,15],[-40,4],[-37,-9],[-8,6],[-65,23]],[[2291,5299],[-38,-44],[-75,-21],[-23,-31],[-45,-2],[-28,28],[-16,6],[-38,-14],[-31,-2],[7,-32],[-74,-21],[5,-8],[-40,-13],[1,-6]],[[6606,5401],[-41,29],[4,24],[-61,-9],[-53,31],[0,33],[29,0],[12,23],[187,7],[53,-20],[72,43],[62,61],[52,1],[0,-31],[6,9],[80,6],[-12,8],[8,142],[186,-3]],[[4155,5055],[-11,31],[-33,52],[-5,20],[4,22],[26,60],[2,135],[-6,20],[16,36]],[[4338,5032],[-4,19],[-14,-4],[-15,22],[-12,2],[-17,-14],[-23,16],[-16,-12],[-82,-6]],[[4565,5516],[28,-96],[4,-97],[33,-56],[-16,6],[-49,-69],[-12,1],[0,22],[-65,26],[-89,-97],[3,-14],[-39,22],[-12,-92],[-13,-40]],[[4391,5606],[3,16],[25,28],[29,5],[24,10],[24,-9],[7,-14],[-11,-8],[23,-9],[18,-23],[13,-62],[19,-24]],[[4148,5431],[81,101],[11,19],[1,38],[11,20]],[[4565,5516],[61,93],[36,-63],[72,-69],[108,-49],[4,59],[69,43],[64,3],[24,-11],[11,8],[-39,80],[19,-15],[50,23],[105,-35],[30,-5],[7,-14],[-16,-16],[-52,-38],[-13,-18],[65,-16],[17,7],[16,-5],[-1,-60],[28,-22],[45,-14],[53,-9]],[[5328,5373],[-12,-12],[0,-44],[-267,-187],[-124,-98],[-37,-40],[-27,-54],[-12,-13],[-48,-13],[-36,-6],[-84,5],[6,13],[-29,12],[-12,-4],[0,-18],[-28,0],[-29,6],[24,3],[9,17],[-5,18],[-15,8],[-1,13],[-44,7],[0,11],[-33,10],[0,18],[-28,7],[-65,56],[-17,-2],[-21,-56],[-8,-9],[-47,11]],[[3806,5408],[-37,-10],[49,-55]],[[3742,5617],[0,-16],[12,-7],[27,0],[65,-28],[20,-12],[9,-15],[-20,-12],[12,-10],[-15,-32],[-22,-3],[7,-34],[-31,-11],[0,-29]],[[3818,5343],[-20,-7],[206,-203],[-32,-40],[-17,16],[-35,-26],[-82,-7],[9,27],[-78,56],[-146,154],[-324,172],[-406,126],[-16,20]],[[4148,5431],[-18,-18],[-48,-4],[-37,6],[-40,-4],[-7,35],[-45,-5],[2,-25],[-52,-3],[-24,19],[-21,4],[-28,-20],[-24,-8]],[[771,5455],[4,111],[45,-16],[40,45],[44,11],[4,14],[118,-16],[28,-11],[75,13],[56,-13],[33,-66],[60,-27],[24,-50],[73,-19]],[[1445,5164],[-79,43],[-112,38],[-66,3],[-167,41],[-26,106],[-8,13],[-30,17],[-20,6],[-110,-11],[-51,26],[-5,9]],[[1896,5139],[-70,1],[-58,16],[-35,-2],[-26,8],[-7,-7],[-12,17],[8,8],[-20,23],[-22,-2],[-39,9],[-5,-12],[-16,4],[-25,16],[-48,-7],[-76,-47]],[[4155,5055],[-25,8],[-7,9],[-32,13],[-29,22],[0,12],[-13,19],[-32,10],[-11,16],[-1,20],[-17,12],[-68,62],[-17,9],[-32,38],[-15,37],[-21,7],[-17,-6]],[[705,4895],[-81,-15],[0,-29],[53,-55],[8,-17],[-15,-46]],[[1001,4788],[-113,18],[21,23],[-13,31],[7,17],[-55,20],[-18,-11],[-68,25],[-1,-6],[-56,-10]],[[1327,4763],[-18,3],[-31,-8],[-64,33],[-213,-3]],[[1340,4814],[18,-9],[1,-46],[-12,10],[-20,-6]],[[1436,5056],[-13,-7],[-72,19],[-1,-81],[-33,-8],[-10,10],[-14,-60],[34,-16],[9,-44],[-30,-12],[21,-23],[-5,-8],[18,-12]],[[1445,5164],[6,-41],[26,-21],[-12,-25],[-29,-21]],[[774,4507],[-125,-104],[-17,5],[-19,37],[-25,7],[0,16],[-69,48],[-8,13],[-25,4],[-9,43],[-19,10],[-31,37],[-59,33],[0,-3],[-56,8],[23,30],[-202,191],[13,37],[-146,184],[31,15],[4,47],[49,23],[54,-13],[31,96],[-23,28],[52,18],[90,-67],[33,12],[52,-18],[8,34],[77,-3],[61,32],[84,79],[46,20],[28,41],[69,13],[12,-9],[13,4]],[[670,4733],[-38,49],[-63,-32],[58,-25],[-36,-37],[29,-71],[36,-9],[118,-101]],[[8501,4464],[-149,-3],[-58,43],[-138,22],[-4,-83],[41,-23]],[[8798,4600],[-9,-7],[-49,194],[-64,-22],[-8,-15],[-146,-78],[-33,-70],[-4,-110],[16,-28]],[[8058,5151],[10,26],[88,43],[109,-1],[62,-30],[65,-21],[15,5],[13,52],[40,26],[85,13],[9,14],[65,7],[53,-9],[43,-21],[123,-16],[37,-21],[3,-14],[-33,-3],[-52,-14],[21,-41],[3,-14],[22,-63],[-41,-28],[-57,-141],[33,-88],[-4,30],[48,31],[12,-59],[32,-17],[78,-74],[-86,-2],[16,-26],[-84,-39],[89,-41],[-77,-15]],[[7523,4570],[9,34],[23,44],[9,4],[-4,88],[1,52]],[[7559,4382],[1,85],[8,49],[40,-1],[-85,55]],[[8193,4420],[-210,1],[-30,-8],[1,24],[-59,0],[-5,-60],[-135,2],[-49,47],[-15,-1],[-1,-45],[-131,2]],[[2191,4976],[-56,1],[-9,-16],[-42,-4],[0,28],[-12,14],[-35,11],[8,-78],[-13,-9],[-32,7],[-12,9],[-69,-1],[-146,36],[-101,1],[-13,-6],[-85,23],[-32,7],[-61,36],[-14,-2],[-31,23]],[[2291,5299],[5,0],[5,-144],[-13,-52],[-36,-63],[-15,-47],[4,-14],[-50,-3]],[[6609,4922],[-72,40],[-20,17],[-53,12],[-46,152],[-295,-26],[-3,28],[-86,-29],[-33,-24],[-57,42],[-102,30],[-153,24],[94,79],[4,11],[43,3],[102,69],[-136,132],[-11,-52],[-400,37],[-57,-94]],[[6768,5032],[-57,-81],[-102,-29]],[[5211,6981],[116,-176],[-2,-69],[54,-63],[0,-6]],[[5681,5048],[-68,20],[12,22],[-16,16],[11,9],[-21,27],[-24,0],[-33,-16],[-35,12],[10,27],[-22,23],[7,10],[41,-11],[28,-17],[29,2],[16,-7],[70,-10],[88,-39],[-4,-38],[-21,-16],[-68,-14]],[[6502,4938],[11,7],[-45,-4],[33,-2],[-127,0],[1,6],[-64,5],[-8,-5],[-47,15],[12,15],[46,0],[41,11],[16,14],[-1,58],[29,7],[11,-30],[25,-35],[42,-15],[36,-5],[32,-27],[-43,-15]],[[5916,5104],[-31,3],[-41,16],[-5,10],[33,16],[44,-45]],[[5949,5071],[-15,17],[14,13],[29,-27],[-28,-3]],[[6996,4806],[-45,-14],[-36,-2],[-42,12],[-52,-97],[-7,-27],[-9,-12],[1,-53],[39,-2],[22,-18],[-26,-19],[-28,-53],[-57,-56],[-12,-101]],[[5759,4989],[31,-7],[-1,-14],[31,-2],[11,7],[49,-26],[60,-20],[127,1],[20,3],[36,-3],[16,16],[70,-31],[41,-6],[35,-8],[127,-15],[24,-12],[57,1],[92,13],[24,36]],[[5843,4744],[-32,-14],[-69,-17],[-7,13],[-21,14],[-17,1],[-12,11],[-89,29],[-25,44],[267,-1],[10,28],[16,1],[-60,20],[2,17],[-51,1],[15,14],[-12,16],[5,38],[-4,30]],[[6322,4391],[58,6],[39,72],[0,8],[78,35],[15,63],[-29,8],[-162,65],[-53,23],[-72,22],[-5,14],[-16,-2],[-18,-24],[-18,-13],[-41,-6],[-7,3],[0,36],[-8,2],[28,40],[13,12],[-70,14],[-44,-2],[-12,8],[-33,6],[-122,-37]],[[6485,4342],[-52,10],[-23,16],[-20,-2],[-48,13],[-29,3],[9,9]],[[6744,4364],[-24,-11],[-24,11],[-36,-6],[-53,16],[-1,16],[-48,-1],[5,-31],[-78,-16]],[[1368,4831],[-28,-17]],[[1762,4646],[-16,4],[-15,18],[-27,43],[-28,23],[-18,24],[-39,23],[-24,26],[-12,29],[-18,-5],[-52,33],[-41,8],[-8,-13],[-68,-7],[-28,-21]],[[2492,4658],[-17,-4],[-60,27],[-54,6],[-65,-25],[-44,-9],[-42,10],[0,-7],[-44,3],[-19,13],[-30,-14],[-8,6],[-28,-5],[-8,-14],[-32,-14],[-29,6],[-24,-12],[-20,6],[-32,-15],[-5,-12],[-16,10],[-20,-7],[-4,8],[-26,-1],[-52,24],[-11,-6],[-40,14]],[[2191,4976],[43,-1],[-39,-72],[1,-105],[-42,-17],[99,-10],[63,-47],[46,-6],[32,-21],[25,7],[27,-8],[5,-15],[41,-23]],[[5771,4650],[-9,22],[-65,33],[-78,-10],[-16,-33],[-35,-32],[-29,-36],[-9,-20],[1,-15],[35,-74]],[[5843,4744],[12,-10],[-27,-9],[-22,-22],[-12,1],[-23,-54]],[[5113,4914],[48,25],[106,12],[0,19],[157,-16],[89,36],[165,9],[31,-16],[50,6]],[[5295,4528],[-1,11],[18,2],[4,26],[0,53],[41,18],[-83,95],[0,7],[34,25],[-65,77],[-44,-6],[-30,15],[-56,63]],[[5396,4319],[-6,-2],[-19,40],[15,30],[-23,44],[-56,62],[-12,35]],[[5566,4485],[-16,-24],[-18,0],[15,-43],[-1,-12],[-150,-87]],[[4086,4931],[8,-87],[19,-25],[4,-17],[-27,-32],[-1,-85],[-10,-6]],[[4097,5008],[-7,-12],[-45,3],[-3,-25],[-25,-5],[-32,-17],[-25,9],[-23,1],[76,-58],[57,26],[16,1]],[[3801,4881],[8,18],[21,13],[5,-17],[44,11],[-4,13],[15,5],[1,47],[15,7],[-15,30],[12,-5],[9,-26],[31,-2],[28,10],[22,21],[44,9],[60,-7]],[[4079,4679],[-5,19],[-21,9],[-63,9],[-66,49],[-62,55],[-47,39],[-14,22]],[[4310,4977],[-10,-39],[-48,0],[-25,-27],[50,-30],[-12,-14],[-38,14],[2,-11],[-30,32],[-52,28],[-32,-8],[-29,9]],[[4293,4992],[21,-7],[-4,-8]],[[4097,5008],[66,-8],[4,9],[68,-1],[58,-16]],[[4525,4875],[-37,-6],[-8,14],[-21,6],[-3,13],[-30,7],[-32,-3],[24,17],[-27,18],[-33,-3],[1,15],[-13,9],[-21,-1],[-15,16]],[[4293,4992],[85,-15],[33,-1],[49,-29],[35,-26],[30,-46]],[[5024,4367],[-17,23],[-54,-14],[-24,-2],[-11,21],[-30,0],[-2,15],[-17,-11],[7,-22],[-65,21],[-30,-68],[12,-24],[-32,-46],[-73,-28],[-26,-29],[-50,-4],[-24,-11],[-14,-25]],[[5295,4528],[-60,-3],[-29,7],[1,-38],[-33,4],[-18,-6],[-64,4],[-9,-7],[-32,5],[-19,-18],[-4,-18],[23,-14],[36,-47],[22,-23],[-16,-9],[-69,2]],[[4525,4875],[6,-18],[19,-17],[75,-37],[99,-22],[28,10],[4,13],[28,1],[57,16],[9,13],[63,17],[26,24],[166,40],[8,-1]],[[3996,4587],[1,13],[125,-62],[36,26],[17,33],[-16,3],[-68,48],[-17,16],[5,15]],[[3929,4515],[22,27],[16,10],[38,4],[-7,11],[-26,1],[24,19]],[[3798,4281],[57,21],[-3,22],[47,-4],[50,-37],[14,2],[5,19],[40,4],[39,22],[34,31],[-84,71],[12,3],[9,40],[-6,1],[-83,39]],[[3924,4163],[-68,64],[-2,17],[-56,37]],[[3996,4069],[-20,5],[2,10],[-15,22],[-27,5],[15,21],[-20,16],[-7,15]],[[4574,4163],[-13,-9],[-65,-10],[-62,8],[-88,19],[-5,-12],[-23,-13],[-1,-15],[-33,-42],[-28,3],[-19,-6],[2,-11],[26,-30],[-29,-13],[-35,7],[-23,-16],[-19,10],[-8,-5],[-41,10],[-15,-8],[-71,20],[-23,21],[-5,-2]],[[3636,4750],[44,17],[12,19],[-4,12],[32,-8],[21,6],[25,31],[16,8],[13,18],[6,28]],[[3996,4587],[-28,13],[-44,9],[-68,2],[-35,12],[-35,17],[-7,16],[-31,30],[-12,23],[-52,1],[-12,16],[-36,24]],[[737,4645],[29,26],[-25,10],[8,7],[-3,22],[20,3]],[[1123,4585],[-25,-40],[-129,0],[-16,19],[-119,60],[-97,21]],[[1001,4788],[5,-15],[-33,-9],[16,-18],[-40,-44],[53,-9],[20,3],[25,-8],[17,7],[47,-50],[-17,-25],[29,-35]],[[788,4797],[-30,13],[-32,25],[-34,3],[-14,9],[21,6],[10,15],[-4,27]],[[766,4713],[20,11],[28,2],[21,-7],[41,-2],[36,23],[0,15],[-65,39],[-21,-5],[-38,8]],[[788,4797],[-67,-23],[0,-14],[-31,-26],[8,-10],[43,7],[25,-18]],[[737,4645],[-15,3],[-20,18],[0,21],[-28,20],[-4,26]],[[7029,4330],[-54,-10],[-21,7],[-69,-6],[-31,12],[-46,2],[-64,29]],[[7523,4570],[-19,-14],[-33,0],[-74,27],[-60,8],[-17,-4],[5,-11],[-14,-31],[9,-44],[-16,-23],[29,-36],[15,-11],[-2,-21],[-115,35],[-42,35],[-19,-21],[-7,-36],[-127,2],[12,-26],[-15,-47],[7,-19],[-11,-3]],[[1619,4416],[-9,0],[1,23],[-28,11],[-5,10],[12,24],[-13,10],[18,11],[2,19],[-35,22],[21,7],[-5,9],[20,45],[-16,1],[-32,81],[13,25],[-8,11],[-65,16],[-14,-4],[-36,14],[-29,30],[5,27],[-36,28],[-12,-5]],[[1806,4510],[3,-18],[-11,-18],[-12,1],[-21,-18],[-25,-12],[-20,1],[-1,-14],[18,5],[28,-14],[-21,-10],[-35,-2],[-20,12],[-33,-12],[-37,5]],[[1762,4646],[-18,-54],[-16,-20],[4,-13],[26,27],[26,-7],[9,-20],[-8,-10],[20,-9],[1,-30]],[[8193,4420],[305,-2],[3,46]],[[7029,4330],[0,-10],[-20,-7],[-70,-35],[-8,-21],[32,-32],[29,-13],[76,-48],[121,-1],[87,-41],[77,-8],[7,81],[28,46],[173,-6],[-4,47],[-42,6],[-17,11],[-17,-9],[18,69],[-7,23],[67,0]],[[7061,3637],[89,33],[-61,119],[61,37],[208,-105],[166,99],[-58,17],[-226,146],[-114,-55],[-155,-15],[-39,4],[-27,8],[-14,-5],[-49,37],[-225,109],[-60,122],[-178,92],[9,14],[23,11],[32,6],[14,15],[28,16]],[[7619,3212],[-302,-60],[-14,22],[96,139],[-15,-2],[-193,197],[-1,37],[-129,92]],[[8888,4091],[-11,-7],[-48,-1],[-16,17],[-55,-7],[-19,10],[-28,5],[-11,-10],[-64,-4],[-40,-4],[-33,-63],[-22,-13],[-37,0],[-11,-32],[-8,-55],[-16,0],[1,32],[-46,-1],[-49,12],[-31,-13],[22,-29],[-95,13],[-17,33],[-127,-13],[14,-78],[145,-18],[48,-70],[-290,-31],[0,-30],[-107,-9],[-45,-55],[-150,-16],[-89,-124],[12,-9],[-85,-130],[-50,-27],[89,-152]],[[8798,4600],[2,-13],[22,-11],[-34,-37],[-3,-45],[61,-16],[-11,-10],[-37,0],[-6,-10],[46,-30],[0,-36],[58,-36],[-17,-12],[-54,-8],[5,-14],[73,4],[-8,-15],[-29,-29],[9,-20],[27,4],[25,15],[24,-4],[-39,-62],[36,-29],[-8,-32],[11,-30],[-64,-23],[1,-10]],[[5785,4281],[13,18],[21,11],[-28,16],[-62,58],[-16,11],[-7,17],[12,9],[-16,9],[-2,21]],[[5924,4108],[-52,58],[-20,67],[-24,30],[-43,18]],[[6322,4391],[-20,-5],[-21,12],[-48,-1],[15,-38],[-39,-1],[-53,-15],[-8,-13],[-29,6],[-4,29],[-45,-29],[46,-20],[-1,-46],[50,-1],[2,-15],[-14,-1],[7,-21],[-8,-12],[-72,4],[0,23],[-14,1],[7,-23],[-14,-20],[-24,-17],[-43,-13],[-68,-67]],[[5700,4451],[26,-6],[35,7],[4,9],[30,8],[-20,15],[20,15],[36,-5],[37,18],[59,-39],[17,10],[37,-24],[-8,35],[-12,18],[12,17],[-50,33],[-32,7],[-18,30],[-46,7],[-29,28],[-27,16]],[[1123,4585],[122,78],[4,25],[17,6],[-4,25],[16,7],[76,-7],[-27,44]],[[1232,4187],[2,5],[-58,25],[-44,48],[-98,59],[-20,13],[-173,108],[-3,26],[-64,36]],[[1667,4283],[-23,-1],[12,-9],[0,-16],[-18,17],[-36,6],[-4,-15],[-17,-18],[-27,4],[-20,-18],[-41,11],[-17,-24],[-45,-2],[-72,-68],[-66,-19],[-61,56]],[[1619,4416],[24,-17],[-8,-33],[5,-15],[37,-39],[-10,-29]],[[3514,4731],[33,-8],[69,2],[20,25]],[[3501,4570],[36,34],[25,11],[-29,39],[-36,-11],[-12,25],[21,14],[8,49]],[[3929,4515],[-89,17],[-59,17],[-23,11],[-37,-4],[-25,5],[13,17],[-37,19],[-8,-18],[-25,-4],[-25,3],[-11,26],[-44,-5],[-6,-13],[-31,-24],[-8,14],[-13,-6]],[[3262,4356],[-4,-107],[4,-7],[-222,4],[-5,-12],[4,-53],[7,-10],[30,-17],[23,-31],[-52,-14]],[[3395,4675],[-27,-7],[-85,13],[-41,-7],[-28,-19],[-8,-17],[-29,-226],[12,1],[-7,-52],[11,-5],[69,0]],[[3047,4109],[-29,13],[2,-14],[-54,-2],[-23,7],[19,17],[15,50],[-28,16],[-2,15],[-51,27],[-80,-43],[-11,0],[68,31],[3,23],[-65,8],[-28,32],[22,4],[-8,36],[-74,19],[31,32],[-44,32],[-29,33],[2,20],[71,-22],[42,1],[9,-21],[-5,-20],[57,-14],[24,-10],[44,17],[-27,18],[31,-1],[13,8],[-33,44],[8,13],[52,3],[4,11],[24,0],[13,30],[65,-10],[18,10],[30,4],[-7,20],[16,3],[37,34],[17,44],[-51,36],[-7,70],[18,13],[18,-23],[41,-3],[70,-19],[73,-29],[47,3]],[[5700,4451],[-134,34]],[[3368,4366],[-40,10],[-18,-16],[-47,0],[-1,-4]],[[3473,4386],[-48,-7],[17,-13],[-5,-14],[-17,-4],[-9,17],[-43,1]],[[3501,4570],[-45,-104],[-10,-11],[-38,-18],[-9,-10],[34,16],[4,-6],[31,4],[6,-22],[8,6],[7,-30],[-16,-9]],[[3395,4675],[29,12],[71,45],[19,-1]],[[2325,4325],[-42,16],[-35,2],[-18,7],[-35,-7],[-32,10]],[[2492,4658],[20,-26],[12,-2],[28,-39],[-9,-13],[-53,-23],[-52,7],[-17,22],[-36,-5],[-29,-20],[-11,-26],[8,-7],[-20,-9],[1,-14],[-54,-2],[-4,-4],[-45,2],[-11,-5],[-25,7],[-88,-26],[6,-2],[74,26],[16,-2],[-1,-21],[33,-9],[-4,-32],[33,-84],[36,-9],[25,-17]],[[2096,4387],[2,6],[-49,-7],[-45,16],[-41,27],[-7,-3],[-40,13],[-78,43],[16,23],[-23,-4],[-25,9]],[[2163,4353],[-67,34]],[[3798,4281],[-9,7],[-25,-13],[-4,20],[-27,17],[-53,1],[-3,-49],[-17,-7]],[[3660,4257],[-49,20],[-37,19],[-56,39],[5,26],[-42,13],[-8,12]],[[5396,4319],[-15,-70]],[[5126,4181],[-6,13],[18,4],[-4,36],[-22,0],[4,44],[-53,19],[1,11],[29,14],[-38,-1],[-16,16],[10,10],[-25,20]],[[5381,4249],[-25,11],[-24,2],[0,-20],[32,-3],[-1,-11],[-130,3],[-2,-44],[-93,-1],[-12,-5]],[[5425,4233],[-25,24],[-19,-8]],[[5785,4281],[-3,-7],[-32,-8],[-49,7],[-12,-3],[-54,-30],[-11,0],[-49,-23],[-16,17],[-28,-8],[-21,14],[13,7],[-20,18],[-78,-32]],[[1943,4336],[-13,-8],[-38,8],[-13,24],[-33,6],[-9,22],[-40,-23],[33,-41],[16,-39],[-45,-3],[-20,-10],[-4,-31]],[[2057,4337],[-21,-10],[-24,0],[-52,16],[-17,-7]],[[2096,4387],[-16,-12],[-23,-38]],[[1777,4241],[-46,23],[-23,24],[-25,2],[-16,-7]],[[2048,4318],[-3,1]],[[2125,4324],[-56,-2],[4,-39],[-32,3],[7,32]],[[2045,4319],[20,15],[21,-9],[39,-1]],[[5393,3551],[4,-6],[57,-8]],[[5321,3669],[-4,-29],[10,-33],[66,-56]],[[5144,4013],[17,-8],[3,-24],[-35,-16],[-4,-21],[9,-10],[-36,5],[15,-25],[-8,-26],[4,-39],[20,-18],[57,-67],[7,-24],[36,-14],[62,-31],[3,-25],[27,-1]],[[5126,4181],[-13,-2],[0,-22],[-20,-2],[-5,11],[-28,-11],[29,-9],[7,-15],[-44,8],[-13,-8],[10,-23],[-1,-16],[73,0],[36,-18],[17,-3],[-2,-17],[-14,2],[-13,-18],[-1,-25]],[[4720,3837],[-44,5],[-53,16],[11,6],[-1,26],[13,6],[-12,19],[-56,4],[10,9],[-32,25],[2,14],[-14,13],[-20,-4],[-5,13],[38,3],[5,67],[-4,22],[-12,14],[43,4],[-4,23],[33,3],[-25,31],[-19,7]],[[5385,3508],[0,5],[-77,39],[-41,7],[-16,22],[-90,18],[-112,40],[18,5],[46,78],[-142,-1],[15,12],[21,33],[-20,0],[0,31],[-25,11],[-2,10],[18,9],[12,22],[-32,9],[-43,6],[-37,-9],[-21,10],[-20,-3],[-8,12],[-40,0],[-17,7],[-4,-22],[-37,3],[-11,-25]],[[5454,3537],[-69,-29]],[[5709,3977],[15,-7],[72,41],[35,4],[93,93]],[[5698,3889],[11,36],[44,17],[-32,11],[-12,24]],[[6322,3662],[-93,40],[5,15],[-13,12],[-44,9],[-2,5],[-44,7],[-33,-2],[-3,67],[-146,14],[-49,14],[-57,-23],[0,19],[-64,11],[4,18],[-70,22],[-15,-1]],[[6781,3560],[-28,37],[-26,-6],[-118,16],[-109,24],[-155,23],[-23,8]],[[7061,3637],[-229,70],[-89,-29],[38,-118]],[[3423,4240],[-99,2],[23,77],[1,19],[28,13],[-8,15]],[[3660,4257],[16,-8],[-64,4],[-28,27],[-57,2],[-21,-5],[-12,5],[-37,1],[-3,-44],[-31,1]],[[3550,4035],[-20,-3]],[[3423,4240],[27,-37],[0,-34],[44,-6],[29,-32],[41,-60],[-37,-11],[16,-7],[7,-18]],[[3502,4030],[-17,8],[-31,-5],[-20,-14],[-18,10],[-1,29],[22,21],[-28,19],[-86,17],[-17,-15],[-36,-6],[-48,5],[-17,9],[-48,-1],[-8,70],[-4,-14],[-29,9],[5,29],[-13,-22],[-33,23],[-28,-2],[77,-39],[16,-78],[-28,-5],[-41,15],[-24,16]],[[3530,4032],[-28,-2]],[[2048,4318],[-40,-21],[1,-18],[-44,-2],[7,-15],[-8,-16],[-29,0],[-40,-29]],[[1943,4336],[16,1],[29,-11],[40,-8],[17,1]],[[1895,4217],[-21,7],[-8,14],[-20,4],[-42,1],[0,-9],[-27,7]],[[2146,4328],[-44,15],[-6,-9],[-39,3]],[[2163,4353],[-17,-25]],[[2325,4325],[-25,-1],[-23,-10],[-34,-22],[-63,19],[-8,10],[-26,7]],[[3681,4031],[-13,-1],[-53,8],[-23,-5],[-42,2]],[[3746,4146],[-25,15],[-12,-12],[-29,-10],[7,-33],[-8,-24],[-19,-13],[17,-2],[4,-36]],[[3924,4163],[-33,0],[-29,8],[-57,-50],[-7,-16],[-50,35],[-2,6]],[[5709,3977],[-28,21],[-106,26],[-3,8],[-53,18],[-4,-36],[-34,16],[-57,-8],[-27,2],[-8,24],[-12,53],[-13,2],[13,17],[-10,12],[8,14],[15,1],[19,36],[-16,3],[4,14],[20,7],[8,26]],[[2263,4191],[-24,-5],[9,-8],[-12,-21],[-46,4],[-3,-24],[-65,2],[20,-31],[-37,-18],[2,-7]],[[2125,4324],[-3,-22],[7,-38],[12,-23],[20,-19],[38,-23],[64,-8]],[[2107,4083],[-26,2],[-8,31],[-16,8],[-28,38],[-2,15],[-71,-11],[-74,30],[-1,21],[14,0]],[[5381,3914],[-56,50],[-90,39],[-21,-6],[-70,16]],[[5698,3889],[-14,-27],[-32,45],[-9,-4],[30,-53],[-62,7],[1,-41],[-29,-3],[1,43],[-18,2],[-7,-45],[-16,10],[-49,0],[-16,-10],[-3,14],[-18,8],[-20,24],[-56,55]],[[1494,3857],[-2,-1],[-52,50],[-69,33],[-93,2],[-33,19],[-23,4],[2,24]],[[2057,3938],[-28,-4],[-21,16],[-25,-14],[9,-3],[-11,-18],[22,-34],[41,-33],[20,-8],[17,-17],[-20,-18],[33,-12],[-41,-3],[-41,12],[-40,-8],[-4,-30],[-8,-8],[-49,23],[-15,21],[11,13],[-20,5],[-26,-23],[8,-28],[-15,-11],[-28,2],[-42,-10],[-26,15],[-18,-1],[25,38],[-21,26],[-16,-3],[-17,17],[-11,-15],[-19,3],[18,8],[-12,15],[14,6],[-5,21],[-12,-13],[-50,-16],[-3,9],[-33,15],[-24,-14],[-53,5],[-27,-7]],[[2141,4052],[-3,-16],[-15,-6],[3,-22],[16,-16],[-1,-17],[34,-36],[0,-14],[-17,3],[-15,14],[-21,4],[-1,14],[-22,6],[-10,-7],[-23,15],[23,13],[-24,11],[-20,-18],[-16,2],[-9,18],[3,22],[-14,-18],[-17,13],[-7,23],[-10,8],[13,-51],[16,-14],[-11,-7],[23,-16],[45,-14],[-4,-8]],[[2107,4083],[19,-14],[-4,-9],[19,-8]],[[1189,4155],[43,32]],[[1224,3988],[18,8],[-22,7],[0,10],[-28,11],[-28,46],[24,40],[-4,27],[5,18]],[[4744,3441],[-20,0],[-30,41],[-79,41],[-72,-23],[-75,18]],[[4720,3837],[0,-12],[15,-13],[-25,-25],[32,-14],[-27,1],[-4,-32],[32,-25],[-20,-12],[12,-20],[-12,-2],[-31,-30],[-70,31],[-5,-14],[8,-57],[70,-43],[13,-19],[-20,-22],[56,-88]],[[3983,3945],[-23,14],[-4,17],[21,20],[32,0],[-8,18],[-28,21],[-20,8],[43,26]],[[4180,3837],[11,6],[-5,20],[-46,41],[-21,8],[-87,24],[-24,-7],[-25,16]],[[4468,3518],[-30,20],[-32,8],[1,26],[-9,27],[21,28],[-3,17],[-34,9],[-44,24],[4,9],[-25,25],[-13,1],[-23,22],[-37,4],[-20,27],[-13,9],[25,25],[-19,2],[-29,14],[-8,22]],[[3983,3945],[2,-25]],[[3834,3956],[-1,38],[-19,19],[-11,26],[12,13],[-32,22],[-1,-9],[-26,-4],[-20,39],[6,13],[-10,11],[20,1],[-6,21]],[[3906,3917],[-59,-5],[-4,33],[7,13],[-16,-2]],[[3985,3920],[-28,5],[-14,-6],[-37,-2]],[[3777,3950],[-56,-21]],[[3834,3956],[-57,-6]],[[3721,3929],[12,24],[-23,6],[-5,30],[-18,-1],[5,48],[-11,-5]],[[8888,4091],[20,-33],[-73,-38],[4,-13],[40,-23],[-2,-33],[-67,-32],[13,-32],[-42,-76],[48,-37],[-45,-19],[1,-23],[70,19],[-9,-19],[12,-7],[21,4],[27,-28],[-2,24],[18,10],[33,-4],[17,18],[32,-37],[53,14],[-4,-40],[12,-14],[16,12],[25,-4],[-29,-42],[0,-36],[-28,-21],[-72,-23],[-4,-47],[-10,-21],[-23,-16],[-2,-268],[-55,10],[-24,13],[-74,4],[-77,-60],[-20,-29],[-57,-12],[-16,-31],[7,-2],[-41,-25],[-10,50],[-25,15],[-22,-5],[-10,-45],[-118,-3],[-72,-27],[-1,-23]],[[8323,3036],[-94,9],[-7,10],[-91,-32],[17,297],[-275,-57],[-254,-51]],[[1224,3988],[-68,57],[-97,49],[-85,22],[-122,13],[3,12],[37,-10],[40,7],[70,-1],[66,-21],[-5,-9],[52,-23],[-44,33],[27,28],[53,12],[38,-2]],[[3721,3929],[-8,-3]],[[3622,3923],[-7,16],[-45,11],[21,8],[-4,10],[-42,-1],[-7,18],[4,16],[-12,31]],[[3713,3926],[-11,-6],[-38,9],[-42,-6]],[[3685,3739],[-75,-14],[-11,-19],[-20,15]],[[3622,3923],[63,-184]],[[3579,3721],[5,18],[-12,56],[-11,21],[-15,1],[-4,17],[-32,-6],[-1,-7],[-31,-5],[-2,-22],[-10,2],[-4,40],[7,-10],[21,0],[12,16],[-20,13],[-24,-11],[-46,45],[44,8],[36,-38],[45,5],[-30,62],[-30,30],[-7,22],[-38,4],[-11,-9],[-25,4],[-1,14],[25,8],[8,-12],[18,-3],[48,12],[28,-20],[7,9],[-7,27],[-20,18]],[[5381,3914],[-38,-4],[9,-34],[27,-6],[-27,-19],[29,-47],[12,-67],[-45,-28],[40,1],[-44,-33],[-23,-8]],[[3834,3882],[-51,-4]],[[3906,3917],[6,-27],[-78,-8]],[[3783,3878],[-6,72]],[[3745,3721],[-20,89],[-5,68],[-7,48]],[[3790,3717],[-32,-8],[-13,12]],[[3831,3748],[-20,-5],[-4,-28],[-17,2]],[[3809,3795],[17,-9],[5,-38]],[[3783,3878],[10,-84],[16,1]],[[3834,3882],[0,-39],[83,8],[2,-6],[56,13],[14,-6],[-3,35],[15,15],[-16,18]],[[4180,3837],[-1,12],[-44,13],[-21,-13],[-11,9],[-29,-13],[-28,-35],[-44,-14],[-9,14],[-69,-5],[-115,-10]],[[6322,3662],[-20,-16],[-20,11],[-41,-3],[-11,12],[-26,4],[-13,-21],[-19,14],[-17,-7],[-28,4],[-19,11],[-5,-11]],[[6002,3664],[-10,14],[-91,1],[-65,-26],[0,-22],[-69,-1],[4,16],[-2,36],[-56,-2],[-29,11],[-36,2],[-13,-8],[12,-16],[-19,-22],[-20,-3],[25,-22],[-40,-36],[-1,-13],[-75,2],[-120,-26],[-4,2]],[[6103,3660],[-21,31],[-15,10],[-41,0],[-16,-6],[7,-18],[-15,-13]],[[3745,3721],[-28,-5],[-16,24],[-16,-1]],[[2057,3938],[12,-17],[37,-17],[-5,10],[22,-2],[4,-15],[35,-16],[5,-13],[33,-29],[23,3],[0,-10],[24,-6],[8,-10],[36,-13],[12,8],[1,-18],[-13,-53],[15,-6],[-1,-11],[37,-41],[-2,-38],[-11,10],[-29,-2],[-1,-46],[-95,4],[-16,-18],[-47,-9],[1,-14],[-40,21],[-99,17],[-35,-8],[-12,-17],[-28,-13],[12,-24],[-14,4],[-19,37],[-21,15],[9,14],[-41,34],[-27,3],[-41,16],[-6,26],[-20,17],[-20,4],[4,15],[-29,7],[8,12],[-15,4],[-16,26],[-33,9],[-20,-1],[-25,16],[-7,15],[-34,6],[-15,-15],[-21,17],[-21,8],[-22,23]],[[5149,3412],[-153,12],[-252,17]],[[5385,3508],[-24,-7],[-28,13],[-54,0],[-32,14],[1,-28],[-18,0],[-69,-42],[-12,-46]],[[2263,4191],[50,-29],[24,4],[16,-55],[-11,-11],[40,-34],[12,-16],[36,-5],[14,-16],[80,-7],[32,-47],[44,-26],[-11,-13],[-13,6],[-24,-15],[7,-15],[-43,-10],[-8,-14],[-48,5],[-5,-9],[-17,18],[-23,-8],[6,-27],[27,-19],[3,-21],[-16,5],[-33,24],[-36,18],[-29,40],[0,9],[23,21],[-20,29],[-23,16],[-42,14],[-41,33],[-23,-9],[-49,-1],[-21,26]],[[2732,3764],[-13,6],[-65,15],[-33,-14],[-61,17],[4,13],[-28,17],[31,8],[23,36],[30,-8],[-3,11],[29,22],[56,-17],[8,-36],[24,-11],[-16,-17],[14,-42]],[[3895,3750],[-64,-2]],[[4159,3793],[-16,-21],[4,-8],[-20,-7],[-12,13],[-20,1],[-41,-23],[-45,-5],[-25,5],[-17,-7],[-46,-4],[-1,13],[-25,0]],[[4180,3837],[-40,-25],[-9,-25],[28,6]],[[4195,3498],[-17,13],[-15,-1],[9,17],[-26,-9],[0,13],[-25,6],[0,-10],[-19,-7],[-28,2],[-20,23],[-16,1],[-14,26],[-35,-9],[-8,-19],[-22,11],[-35,-9],[-48,-27]],[[4458,3442],[-19,25],[-20,10],[-21,-3],[-56,10],[-1,17],[-15,4],[-21,-7],[-23,23],[-34,28],[-35,-25],[-18,-26]],[[4468,3518],[12,-13],[4,-29],[-26,-34]],[[3928,3637],[24,-13],[32,-3],[9,-14],[44,5],[41,8],[28,-15],[33,5],[9,12],[36,-1],[-42,41],[-31,36],[-5,20],[32,6],[13,24],[45,18],[-25,8],[-12,19]],[[3847,3533],[81,104]],[[3876,3519],[-29,14]],[[3928,3637],[-36,12],[-25,5],[-5,8],[38,47],[-5,41]],[[3769,3538],[36,110],[-15,69]],[[3847,3533],[-8,-7],[-26,-2],[-44,14]],[[9687,876],[-66,-70],[-49,18],[-106,12],[-56,-113],[49,-148],[-118,81],[-104,56],[-76,-12],[-99,74],[-208,24],[-8,32],[-62,-13],[-43,15],[-65,86],[84,90],[-48,6],[-1,112],[-148,99],[64,82],[-95,112],[-453,5],[-685,14]],[[8323,3036],[112,-2],[33,-22],[117,7],[58,18],[83,-5],[68,38],[33,-25],[-5,-28],[110,4],[-1,-243],[-15,-792],[-1,-152],[5,-46],[61,-55],[146,-51],[137,-4],[62,-12],[-9,-27],[24,-39],[9,-55],[79,-11],[107,-70],[-12,-59],[-18,-14],[-31,2],[-19,-15],[-35,-17],[55,-79],[120,-77],[-3,-63],[-16,-9],[-45,-61],[8,-19],[-25,-8],[155,-164],[17,-5]],[[6643,3019],[-6,0],[-8,72],[47,23],[-4,31],[60,71],[-15,146],[35,57],[23,77],[1,28],[22,21],[-17,15]],[[7015,2625],[1,32],[-9,15],[-8,36],[-40,-1],[-4,12],[3,66],[37,16],[5,110],[-98,63],[20,100],[-279,-55]],[[6821,2174],[102,21],[158,77],[29,47],[37,20],[6,32],[33,19],[12,15],[49,28],[-25,4],[-23,12],[-74,27],[5,160],[-115,-11]],[[6974,1443],[9,5],[1,24],[28,18],[-28,1],[47,50],[-77,28],[0,34],[-27,35],[61,41],[-93,81],[-126,1],[-53,151],[181,9],[-2,30],[-87,14],[-3,26],[-134,43],[-23,103],[169,25],[4,12]],[[7394,1438],[-30,1],[-390,4]],[[3754,3540],[0,3],[-93,18],[-8,7],[-25,-24],[-8,3],[27,31],[4,15],[-40,31]],[[3769,3538],[-15,2]],[[3611,3624],[-17,32],[-116,1],[-5,20],[21,-17],[32,0],[8,13],[49,-2],[17,13],[-5,24],[-16,13]],[[6103,3660],[4,-16],[-41,-39],[-85,12]],[[5981,3617],[-20,21],[-33,-4],[1,6],[73,24]],[[5981,3617],[0,-13],[28,-19],[-28,-28],[-3,-22],[89,-45],[37,-45],[32,-15],[-34,4],[22,-65]],[[6124,3369],[-33,9],[-1,-45],[8,-14],[-32,-7],[-23,-11],[-66,-22],[-12,15],[-57,-17],[-24,40],[-22,5],[-19,-18],[-40,11],[-8,34],[4,16],[-45,-10],[-11,9],[-42,9],[-117,52],[-61,39],[15,13],[-48,29],[-36,31]],[[6379,2968],[-16,29],[-17,62],[4,86],[-12,44],[-21,29],[-32,18],[9,48],[44,16],[25,0],[4,28],[-68,2],[-13,-12],[-6,16],[10,18],[-17,-2],[-53,14],[-12,-36],[-12,2],[-72,39]],[[6488,2989],[-109,-21]],[[6643,3019],[-155,-30]],[[3132,3477],[-48,6],[-29,17],[9,30],[-52,70],[12,23],[35,10],[29,-6],[40,-53],[-11,-24],[-49,-16],[23,-23],[58,16],[-17,-50]],[[3870,3417],[-3,-20],[-24,-28]],[[3754,3540],[8,-20],[-36,-47],[0,-10],[36,-13],[7,8],[17,-6],[-7,-9],[43,-15],[48,-11]],[[3843,3369],[-28,-11],[-21,7],[-77,36],[-12,-6],[-41,1],[-3,7],[-62,-18],[-220,34],[-19,14],[55,-4],[-23,11],[25,1],[-24,9],[27,-1],[6,7],[-34,7],[-4,14],[-97,-25],[-18,14],[58,31],[74,-6],[73,54],[36,0],[8,14],[-40,7],[-33,-19],[-16,11],[-41,-1],[-32,3],[85,17],[15,17],[25,8],[9,-10],[85,-1],[19,18],[18,1],[-5,14]],[[4195,3498],[-40,7],[-32,-31],[-56,-22],[24,-2],[-41,-29]],[[3906,3451],[-11,29],[-44,12],[25,27]],[[4050,3421],[-8,-5],[-29,23],[0,11],[-37,10],[-5,11],[-15,-13],[-20,-2],[-20,8],[-10,-13]],[[5296,3403],[-147,9]],[[5929,2959],[-78,15],[-105,-21],[17,39],[-114,88],[8,47],[96,49],[-116,105],[-28,5],[-195,109],[-118,8]],[[6379,2968],[-114,-22],[-251,-48],[-85,61]],[[4227,3348],[-12,13],[-80,32]],[[4463,3437],[-24,8],[4,-16],[-16,4],[-13,18],[-48,-16],[7,-23],[-16,0],[-130,-64]],[[4458,3442],[5,-5]],[[4135,3393],[-33,9],[-16,14],[-36,5]],[[3906,3451],[-36,-34]],[[4982,2759],[29,9],[1,11],[23,14],[-25,20],[-27,-4],[0,16],[-20,18],[-14,-6],[-18,23],[29,-3],[18,26],[-39,32],[-5,15],[-19,4],[-47,40]],[[5303,2740],[-28,-37],[-16,3],[-20,-14],[-9,7],[-20,-11],[8,-11],[-21,-2],[-4,10],[-27,-25],[-20,9],[-1,11],[-39,5],[-23,11],[-10,-4],[-91,67]],[[5296,3403],[-33,-22],[8,-54],[-17,-25],[-8,-61],[54,-103],[-17,-38],[-9,-1],[-6,-134],[-12,-50],[15,0],[-8,-19],[8,-21],[20,20],[4,20],[16,-9],[-3,-27],[-8,-12],[20,-7],[-1,-43],[-20,-2],[33,-11],[-4,-23],[-37,-35],[12,-6]],[[4805,3237],[-9,4],[-1,28],[-32,14],[-53,52],[-10,4],[15,17],[-8,5],[-4,28],[-25,17],[-4,-17],[-20,15],[-21,3],[-29,25],[-64,25],[-33,-11],[5,-28],[-49,19]],[[4853,2980],[-4,16],[28,15],[17,1],[11,40],[-6,43],[-19,35],[-54,83],[-21,24]],[[4868,2974],[-15,6]],[[2748,3409],[-4,23],[-12,-2],[-11,61]],[[2820,3416],[-72,-7]],[[2853,3475],[-18,-6],[-18,11],[6,-24],[12,2],[8,-40],[-23,-2]],[[2721,3491],[11,6],[-22,13],[69,-16],[7,16],[8,-19],[43,-16],[16,0]],[[2705,3594],[-20,11],[1,10],[24,-10],[-5,-11]],[[2303,3365],[-63,6],[-4,18]],[[2511,3391],[-24,-2],[-126,-19],[-58,-5]],[[2520,3398],[-9,-7]],[[2510,3485],[-11,-24],[13,-9],[8,-54]],[[2236,3389],[37,54],[28,71],[8,-8],[35,-7],[49,-25],[73,9],[44,2]],[[2640,3410],[-120,-12]],[[2669,3487],[5,-10],[12,-63],[-46,-4]],[[2510,3485],[7,-10],[36,9],[48,5],[13,-13],[44,16],[11,-5]],[[2748,3409],[6,-22],[12,1],[2,-17]],[[2669,3487],[21,-5],[31,9]],[[2656,3331],[-16,79]],[[2768,3371],[-21,-14],[4,-17],[-95,-9]],[[4033,3250],[-31,17],[-21,26],[4,29],[-33,17],[-36,10],[-42,-11],[-19,6],[16,15],[-24,-11],[-4,21]],[[4135,3393],[-25,1],[-16,-25],[-25,-17],[-7,-12],[-36,-28],[11,-55],[-4,-7]],[[2916,3401],[-19,5],[-36,-23]],[[2853,3475],[-1,-16],[17,7],[-9,-15],[25,-1],[-16,-7],[23,-24],[28,-7],[-4,-11]],[[2824,3394],[-4,22]],[[2861,3383],[-5,17],[-32,-6]],[[4334,3255],[-38,34],[-73,58],[4,1]],[[4382,3283],[-48,-28]],[[4435,3317],[-49,5],[4,-28],[-8,-11]],[[4805,3237],[-17,9],[-11,19],[-61,36],[-74,9],[-27,9],[-11,-17],[-67,-2],[-17,19],[-8,-11],[-19,0],[-9,19],[-20,-10],[-29,0]],[[6199,2113],[-32,3],[-7,40],[-57,-8],[-9,4]],[[6362,2127],[-7,-4],[-97,36],[-59,-46]],[[6095,2477],[100,-103],[-27,-97],[78,-7],[35,13],[186,-152],[-105,-4]],[[6045,2774],[-14,-4],[75,-20],[-3,-23],[8,-31],[28,0],[10,-14],[-47,-22],[-23,-34],[-49,-9],[-30,8],[-46,-59],[107,-74],[14,0],[20,-15]],[[5929,2959],[-13,-11],[-1,-22],[18,-7],[36,-41],[24,-10],[26,-23],[-18,4],[-64,-20],[47,-36],[45,-17],[16,-2]],[[5434,2664],[-2,12],[-36,63],[10,16],[-69,-25],[-17,5],[8,8],[-25,-3]],[[5799,2378],[12,7],[-18,14],[2,11],[-32,17],[-43,6],[-59,24],[-66,48],[-3,23],[-45,22],[5,7],[57,-10],[83,73],[-67,12],[-53,-3],[-17,-8],[-36,39],[-25,-1],[8,-21],[-41,26],[-27,0]],[[6094,2152],[1,53],[49,45],[-30,19],[5,70],[-175,97],[-71,-26],[-18,-20],[-56,-12]],[[4033,3114],[-8,0],[-119,31],[-132,46],[-38,41],[-23,-14],[-8,30],[-17,-10],[-32,-4],[-85,21],[-8,15],[12,7],[-114,8],[-17,18],[-102,19],[9,36],[0,54],[210,-42],[67,2],[39,-5],[1,12],[50,-1],[32,-8],[14,-21],[10,3],[24,-17],[7,-12],[18,3],[33,-9],[0,-26],[7,-3],[5,28],[23,-8],[-15,-19],[15,-5],[8,9],[29,-5],[17,-16],[16,2],[105,-42],[35,-17],[13,-28],[-7,-39],[-57,-34],[-17,0]],[[3961,3293],[-40,17],[-13,23],[35,-7],[20,-15],[-2,-18]],[[3696,3203],[-32,6],[-12,12],[21,19],[8,-16],[-14,-8],[30,-7],[-1,-6]],[[2831,3363],[-2,-1]],[[2824,3394],[7,-31]],[[2811,3349],[-19,23],[-24,-1]],[[2829,3362],[-18,-13]],[[4186,3184],[-51,-18],[-8,7],[-8,30],[-18,20],[-68,27]],[[4314,3245],[-46,-28],[-9,4],[-43,-28],[-20,14],[-10,-23]],[[4334,3255],[-20,-10]],[[2656,3331],[3,-19],[-11,-1]],[[2528,3301],[-17,25],[13,9],[-13,56]],[[2648,3311],[-120,-10]],[[2861,3338],[-32,24]],[[2942,3332],[-13,20],[-35,-14],[-17,11],[-16,-11]],[[2916,3401],[30,-29],[16,-8],[5,-15],[-24,-1],[-1,-16]],[[2831,3363],[30,20]],[[2528,3301],[-13,5],[-47,-5],[-10,-14]],[[2306,3278],[-3,87]],[[2458,3287],[-81,-7],[-71,-2]],[[2034,3271],[3,39],[-12,23],[16,18],[20,5],[31,21],[47,1],[20,-8],[35,2],[42,17]],[[2306,3278],[-38,0],[-234,-7]],[[2648,3253],[-8,41],[8,17]],[[2662,3254],[-14,-1]],[[2811,3349],[-149,-95]],[[2813,3221],[-17,7],[-137,-5]],[[2861,3338],[-49,-31],[44,-31],[-32,-21],[16,-3],[-1,-14],[13,-15],[-39,-2]],[[2659,3223],[3,31]],[[4661,3050],[-54,32],[-26,33],[-11,28],[-32,-13]],[[4853,2980],[-24,-7],[0,-8],[-49,20],[11,13],[-32,11],[-28,-20],[-12,12],[7,19],[-22,11],[-22,24],[-21,-5]],[[4382,3283],[15,-14],[38,24],[45,2],[-36,22],[-9,0]],[[4538,3130],[-37,45],[-17,5],[-8,14],[-28,-12],[-29,26],[-22,-10],[-23,19],[-15,-7],[-45,35]],[[2478,3193],[-7,31],[-4,-12],[-25,9]],[[2648,3253],[-60,-3],[-85,-56],[-25,-1]],[[2442,3221],[-8,13],[34,2],[-10,51]],[[2054,3140],[-8,21],[-1,28],[-11,82]],[[2393,3153],[-36,0],[-21,14],[1,-14],[-40,0],[-231,-7],[-12,-6]],[[2442,3221],[-32,-7],[4,-13],[-17,-1],[-8,-11],[4,-36]],[[3965,2962],[56,-31],[65,46],[12,15],[-4,20],[4,88]],[[4293,2882],[-81,-14],[-12,-11],[3,-41],[-23,-16],[-21,5],[-243,152],[12,13],[8,-8],[29,0]],[[4318,2946],[47,-35],[-28,-5],[-4,-15],[-40,-9]],[[4538,3130],[-88,-31],[-35,-16],[7,-7],[-31,-21],[-34,28],[-16,-40],[-24,21],[9,-25],[-10,-27],[-11,3],[-17,-29],[10,-13],[-22,-8],[42,-19]],[[4098,3100],[21,-1],[12,-10],[47,-29],[42,-63],[7,0],[-35,62],[-28,40],[37,-18],[7,-14],[28,5],[-33,36],[9,14],[-16,19],[-33,28],[23,15]],[[2659,3223],[8,-100]],[[2667,3123],[-95,-2],[0,4],[-39,-3],[7,26],[20,26],[-31,-5],[-10,-24],[-8,15],[-23,16],[-25,1],[15,16]],[[2820,3127],[7,23],[-3,24],[-21,24],[10,23]],[[2991,3145],[-54,1],[1,-16],[-118,-3]],[[2942,3332],[1,-29],[-18,-10],[37,-2],[-16,-13],[37,1],[2,-16],[-38,8],[11,-32],[-13,-27],[36,-7],[5,16],[5,-30],[-6,-4],[2,-26],[-24,-3],[28,-13]],[[2695,3021],[-9,19],[-48,0]],[[2795,3040],[-60,-19],[-40,0]],[[2820,3127],[-9,-36],[-16,-24],[-8,0],[8,-27]],[[2638,3040],[29,20],[3,24],[-3,39]],[[2422,3116],[0,7],[-29,30]],[[2524,3020],[0,15],[-14,9],[29,11],[0,15],[-28,19],[-23,2],[-14,16],[-52,9]],[[2638,3040],[-49,-20],[-65,-19],[0,19]],[[4661,3050],[-87,-19],[-28,-11],[-10,15],[-45,-19],[13,-19],[-32,-1],[20,-23],[-29,-16],[-57,1],[-44,22],[-16,-12],[-32,-9],[4,-13]],[[2333,3060],[-146,0],[-1,-18],[-44,-2],[-37,12],[-44,0]],[[2422,3116],[-29,-20],[-36,1],[-5,-13],[-20,0],[1,-24]],[[2061,3052],[-7,88]],[[2888,2872],[-3,0]],[[2991,3145],[28,-26],[-121,-5],[19,-6],[106,3],[20,-12],[37,-32],[-45,-3],[0,-8],[45,-1],[-34,-7],[-20,5],[-7,-11],[7,-22],[17,9],[21,-13],[20,1],[66,-20],[-4,-19],[-26,-5],[-4,-8],[-23,11],[38,-26],[-27,4],[32,-17],[-24,5],[0,-12],[-20,-18],[-20,15],[-45,11],[-16,30],[-13,0],[-36,-22],[53,-27],[-32,-32],[14,-15],[-60,10],[-13,-7],[-26,4],[-10,-7]],[[2885,2872],[21,18],[-33,-2],[-21,27],[-36,94],[-21,31]],[[6399,2364],[-61,2],[-93,106],[-150,5]],[[7015,2625],[-40,3],[0,-14],[-65,-5],[-8,34],[-65,-17],[-126,3],[-20,14],[-20,21],[-16,0],[-44,28],[-5,16],[-65,-16],[17,-17],[-52,-23],[-138,-46],[3,-12],[27,-51],[-4,-4],[14,-46],[36,-36],[31,-60],[-51,-20],[12,-11],[-37,-2]],[[6045,2774],[77,-4],[74,0],[110,19],[32,1],[158,-4],[1,4],[105,-2],[4,24],[-8,16],[9,28],[-29,7],[-40,1],[-1,-16],[-37,1],[9,77],[-33,28],[12,35]],[[3965,2962],[-111,93],[-3,21],[65,28],[182,-4]],[[2524,3020],[-77,1],[-26,-4],[-11,-12],[-20,-4],[3,-31]],[[2393,2970],[-16,-8],[-52,0],[-7,-23],[11,104],[4,17]],[[4399,2746],[-21,-6],[-36,26],[13,4],[8,-20],[24,-1],[-17,21],[-29,8],[21,4],[-4,10],[-29,-6],[-4,8],[33,14],[-22,51],[9,-28],[-35,-10],[-36,14],[-6,27],[60,28],[-35,-8]],[[4577,2832],[4,-15],[-52,-17],[16,-32],[7,-34],[-36,12],[-117,0]],[[4868,2974],[-3,-29],[-36,-7],[8,-24],[-8,-18],[-42,-5],[-31,44],[-3,-5],[-53,-39],[-17,11],[-29,-20],[8,-10],[-20,-8],[58,-46],[7,-9],[-20,-4],[-20,23],[-26,-8],[-14,15],[-25,-10],[-24,19],[-1,-12]],[[2341,2879],[-15,1]],[[2393,2970],[-4,-71],[-48,-20]],[[2098,2883],[-37,146],[0,23]],[[2326,2880],[-112,0],[-116,3]],[[2644,2875],[-47,1],[-91,0],[-165,3]],[[2695,3021],[-1,-16],[-21,-4],[-4,-16],[10,-13],[-21,-23],[21,-15],[-16,-5],[-9,9],[-9,-17],[-28,6],[-20,-21],[53,-15],[-6,-16]],[[2800,2873],[-156,2]],[[2885,2872],[-16,3],[-69,-2]],[[4946,2734],[-24,-4],[0,12],[-20,0],[4,20],[-53,32],[0,-6],[-57,-4],[-3,-38],[11,-7],[-36,0]],[[4982,2759],[-2,-5],[-34,-20]],[[4768,2739],[-28,-5],[-24,12],[-139,86]],[[2399,2621],[-4,-15],[-21,-12],[27,-20],[5,-17],[36,-2],[21,-43],[-20,19],[-25,-12],[-88,4],[-21,-7]],[[2326,2880],[2,-109],[-11,-48],[4,-30],[36,-48],[9,3],[33,-27]],[[2146,2610],[-8,11],[4,42],[-11,107],[-17,67],[-16,46]],[[2309,2516],[7,23],[-37,52],[-44,34],[-21,-4],[2,-22],[-22,-9],[-24,11],[-16,-3],[-8,12]],[[2624,2721],[-36,14],[-8,18],[-20,13],[-12,-11],[-4,41],[24,-6],[29,8],[27,18],[29,-16],[33,18],[61,-12],[57,-30],[-29,52],[25,45]],[[2921,2630],[0,16],[-27,-11],[-16,2],[-47,-13],[-15,-11],[-32,5],[-36,62],[-54,11],[-28,0],[-40,23],[-2,7]],[[2888,2872],[8,-16],[-7,-28],[37,-145],[45,-4],[-4,-34],[-43,0],[-3,-15]],[[2624,2721],[-31,-80],[-25,5],[-52,-37],[-73,52],[4,-15],[-42,-13],[-6,-12]],[[4545,2617],[-16,7],[-25,40],[-21,7],[-20,17],[-27,4],[-37,54]],[[4768,2739],[-8,-20],[27,-13],[-32,-6],[-44,0],[-29,-24],[-76,-31],[-61,-28]],[[4799,2583],[-47,-4],[-4,-9],[-65,1],[39,-36],[-39,-5],[-98,0]],[[4946,2734],[-8,-7],[-41,-1],[45,-27],[-13,0],[-22,12],[-26,-12],[-21,-3],[45,-35],[-72,-24],[21,-31],[-58,-4],[3,-19]],[[4585,2530],[-40,87]],[[4987,2526],[-65,-19],[-23,31],[-9,1],[-17,20],[-21,7],[0,12],[-53,5]],[[5157,2579],[-19,22],[-24,-35],[-38,5],[9,-13],[-98,-32]],[[5434,2664],[-45,-4],[-21,-11],[18,-31],[23,6],[46,-18],[-30,-36],[-65,7],[-27,9],[-14,-4],[-45,12],[-6,-20],[-25,12],[-41,4],[-45,-11]],[[6821,2174],[-9,1],[-11,110],[-158,-103],[0,-15],[-22,-8],[-4,35],[-22,27],[-37,74],[3,4],[-48,-2],[-7,14],[-13,-3],[-10,15],[-14,-4],[-22,6],[-22,-1],[-22,16],[-4,24]],[[5677,2332],[-11,18],[35,-2],[0,24],[34,0],[3,26],[-81,0],[-110,4],[-105,56],[-53,7],[-17,-5],[-32,11],[-20,13],[-73,-8],[-90,103]],[[5799,2378],[-20,-19],[-54,-4],[-15,-19],[-33,-4]],[[5677,2332],[-65,34],[-40,13],[-37,-12],[13,-11],[-10,-9],[-28,0],[0,-19],[13,-15],[-24,-16],[44,-27],[-32,-17],[32,-23],[-78,-2],[25,-19],[-28,1],[-49,36],[-8,0],[-5,-36],[-110,1],[-7,-12],[-42,10],[2,10],[-18,10],[-3,28],[-21,0]],[[5201,2257],[-63,73],[-70,88],[-25,35],[-56,73]],[[2369,2003],[-31,0],[-14,8],[-72,-23],[-3,-9],[-37,8],[-110,47],[-18,0],[-31,25],[-93,-1],[-13,8]],[[2510,2174],[-112,-41],[-36,-14],[25,-2],[-2,-40],[94,-4],[-29,-4],[-4,-42],[-61,7],[4,-22],[-20,-9]],[[2364,2450],[-60,-6],[9,-18],[-13,-10],[13,-27],[-7,-7],[48,-39],[28,-15],[-4,-29],[20,-6],[7,-64],[63,-45],[42,-10]],[[2309,2516],[16,-27],[39,-39]],[[1947,2066],[13,3],[12,87],[-29,24],[44,10],[2,17],[44,-13],[28,1],[37,38],[-13,28],[29,9],[11,19],[-11,23],[12,12],[-9,12],[10,8],[12,53],[10,83],[2,97],[-5,33]],[[5201,2257],[-48,1],[-16,-11],[-54,-21],[-19,-13],[-15,-34],[-30,-1],[0,9],[-51,0],[-51,-8],[9,13],[-49,21],[-16,73],[-69,9],[-16,-26],[-45,-1],[20,-24],[-20,-26],[-41,16],[-32,-36]],[[4658,2198],[-31,98],[-1,55],[-12,24],[4,31],[32,4],[-40,12],[2,19],[-27,89]],[[6654,1436],[16,14],[37,0],[10,39],[-30,1],[1,157],[-160,38],[20,59],[-44,55],[-20,74],[-72,-30],[-29,19],[-12,-1],[-28,29],[-29,-5],[8,19],[269,122],[-25,4],[-12,13],[-122,77],[-9,8],[-61,-1]],[[6974,1443],[-56,0],[-109,8],[-155,-15]],[[2804,2422],[-21,2],[-3,34],[-30,3],[-44,-12],[-12,19],[-37,-10],[-68,-37],[-29,24],[-60,-35],[-1,12],[-20,2],[-32,13],[-42,24],[-41,-11]],[[2805,2426],[-1,-4]],[[2921,2630],[-36,-5],[-15,-23],[28,10],[39,-4],[-3,13],[36,1],[-11,-32],[57,-1],[-2,-10],[-39,-1],[32,-36],[-17,-3],[0,-16],[-20,-23],[-82,-1],[-32,-54],[-36,1],[-16,-8],[1,-12]],[[2808,2427],[11,17],[70,1],[-12,18],[16,16],[8,-26],[-11,-8],[56,4],[7,-20],[22,-8],[-37,1]],[[2938,2422],[17,2],[-13,24],[-45,-3],[0,-34],[-7,-5],[-18,38],[-47,-4],[6,-11],[-23,-2]],[[6094,2152],[-25,3],[-51,-47],[-78,36],[5,8],[-101,42],[-40,-28],[-39,-22],[-63,-40],[-34,-18],[-25,-35],[9,-13],[-28,13],[-12,-1],[-32,-38],[-54,26]],[[4768,1961],[-13,-8],[-74,120],[-14,0],[-21,43],[12,82]],[[5526,2038],[-55,47],[-35,12],[-23,3],[-46,-11],[-19,-16],[-41,51],[-33,-3],[-24,-31],[9,-17],[12,-54],[-9,-16],[-43,-43],[-67,35],[-19,-16],[-32,-1],[-36,-18],[-1,15],[-30,0],[-6,-11],[24,-15],[-15,-9],[-35,23],[-14,-15],[-18,8],[-40,-19],[-4,39],[-98,27],[-60,-42]],[[2572,2273],[-74,70],[-30,-11],[-14,-16],[56,-142]],[[2848,2289],[-44,-13],[-18,15],[-7,-10],[-24,12],[-56,-25],[-21,-2],[-3,-9],[-58,-19],[-45,35]],[[2804,2422],[3,-27],[25,-80],[16,-26]],[[2985,2245],[-7,-9],[-32,-3],[-66,39],[-8,21],[-24,-4]],[[2938,2422],[-34,-14],[17,-26],[64,13],[18,-16],[51,-8],[12,8],[14,-12],[-25,-37],[37,-11],[56,-30],[-31,-31],[-91,34],[-41,-47]],[[2805,2426],[3,1]],[[2758,707],[8,12],[-41,21],[1,77],[-44,27],[-169,286],[-21,12],[-1,31],[-16,0],[-12,23],[-3,126],[-6,61],[-93,167],[-60,46],[-26,4],[-23,12],[-66,6],[-55,-6],[-26,-20],[8,-23],[-33,2],[-3,22]],[[3194,1655],[-25,3],[-34,-26],[-28,-9],[-7,-54],[-62,-6],[16,-54],[30,-19],[28,-74],[-40,-54],[-166,-16],[-21,-72],[-40,9],[-25,-8],[-16,-32],[-37,5],[69,-47],[86,23],[24,-28],[25,-3],[33,-20],[7,8],[108,8],[111,-35],[191,-7],[3,-24],[-61,-12],[-7,-16],[-50,11],[1,-7],[-70,-3],[-68,21],[-52,-123],[-81,-40],[-118,-171],[-93,-56],[6,-15],[-68,-8],[-5,3]],[[3088,1779],[9,-20],[48,-65],[49,-39]],[[2759,2119],[-15,1],[3,-31],[-24,-8],[28,-19],[70,-80],[34,-18],[49,-40],[18,-30],[20,-20],[24,-16],[32,-36],[10,4],[12,-23],[23,-7],[12,-20],[33,3]],[[2572,2273],[64,-59],[37,-24],[66,-59],[20,-12]],[[2077,1593],[13,0],[-6,34],[22,20],[-106,81],[20,12],[16,-11],[13,22],[61,26],[147,92],[64,72],[-21,15],[30,30],[43,10],[-4,7]],[[3002,2228],[-28,-18],[-12,0],[-53,-36],[-19,-16],[11,-6],[-50,-37],[-27,-4],[-37,-14],[-28,22]],[[2985,2245],[-3,-11],[20,-6]],[[3198,2027],[-44,-15],[11,-16],[-8,-12],[-20,-2],[16,-21],[12,2],[104,36],[34,-13],[12,-18],[-8,-17],[-58,-43],[-19,-29],[21,-13],[64,39],[32,-16],[-56,-31],[25,-21],[-42,-19],[-24,13],[-19,-13],[27,-19],[-28,-19],[-32,47],[-21,4],[-8,-20],[8,-8],[-12,-15],[-57,-20],[-20,11]],[[3298,2124],[-7,-8],[20,-26],[-113,-63]],[[3002,2228],[12,1],[30,-15],[35,-22],[13,-29],[19,-11],[152,-1],[0,-23],[-90,5],[-53,-1],[38,-8],[22,3],[54,-7],[28,0],[4,31],[26,0],[6,-27]],[[5688,1737],[-85,40],[-24,19],[-77,92],[-73,60]],[[5981,1952],[-84,-47],[-39,42],[1,-23],[-24,-26],[-143,-145],[-4,-16]],[[6199,2113],[22,-41],[17,-19],[-5,-14],[-34,-8],[1,-40],[-39,-12],[-54,4],[-30,-4],[-30,5],[-36,-11],[-30,-21]],[[5429,1948],[15,16],[82,74]],[[6293,1291],[-16,23],[-84,145],[-4,13],[-119,198],[-36,67],[-29,180],[-8,19],[-16,16]],[[6654,1436],[-68,-44],[-37,-28],[-21,4],[-29,-6],[-15,-13],[-41,-4],[-31,-15],[-22,-3],[-52,-14],[-45,-22]],[[3298,2124],[29,4],[50,17],[32,-1],[0,-27],[21,-8],[-9,-6],[78,-61],[18,5],[44,-2],[0,-26],[18,-5],[8,-18]],[[3518,1952],[-73,58],[-12,-1],[-40,-22],[-1,-8],[41,-35],[-29,-18],[-61,49],[-8,11],[-69,36],[-13,-10],[-15,10],[-1,12],[-39,-7]],[[3587,1996],[-29,0],[0,-28],[-40,-16]],[[4901,1635],[-11,132],[-24,23],[-29,68],[-57,62],[3,17],[-15,24]],[[5429,1948],[-37,-35],[-64,-35],[-143,-91],[-48,-18],[-70,-9],[-41,-15],[-67,-48],[-58,-62]],[[2077,1593],[8,19],[-98,78],[-10,35],[-26,24],[4,26],[-16,56],[9,0],[45,109],[-17,17],[13,46],[-25,18],[8,5],[-24,30],[-1,10]],[[3254,1622],[-60,33]],[[3315,1666],[-61,-44]],[[3518,1952],[24,-23],[7,-17],[-14,-7],[-65,-3],[-36,-17],[-67,-11],[29,-20],[-19,-4],[-20,12],[-38,-24],[52,-28],[-45,2],[5,-28],[-39,-5],[16,-19],[-13,-39],[24,-38],[-4,-17]],[[3782,1787],[-90,1]],[[3630,1995],[-11,15],[-17,-6],[-18,18],[46,19],[23,1],[31,-11],[7,-13],[57,-7],[49,18],[14,1],[77,-42],[19,-21],[16,-32],[10,-9],[-8,-18],[-27,-11],[-31,-27],[8,-39],[-36,0],[-21,-11],[-4,-36],[-32,3]],[[3692,1788],[-16,19],[12,8],[4,27],[-23,24],[-13,-3],[-17,16],[10,26],[-30,-4],[-33,28],[17,19],[-17,12],[1,12],[41,7],[2,16]],[[3692,1788],[15,-19],[-19,-14],[-51,12],[-14,-10],[-73,-21],[-73,-27],[-32,21],[-28,-31],[-33,-1],[-19,18],[-22,-14],[-3,-24],[-25,-12]],[[3587,1996],[43,-1]],[[5520,1451],[19,8],[49,-28],[37,40],[-1,46],[73,5],[8,23],[33,11],[-25,20],[26,64],[51,51],[-102,46]],[[5985,1329],[-54,-3],[14,27],[53,17],[-93,-14],[-22,10],[-44,10],[-57,-30],[-104,16],[-185,-5],[-165,-4],[-15,44],[4,7],[-14,98],[58,4],[81,-8],[25,-65],[16,-17],[28,1],[9,34]],[[6226,1267],[-13,3],[3,13],[-39,-12],[11,34],[-17,-3],[-11,12],[-17,0],[-39,19],[-16,27],[-22,-34],[-20,-5],[-61,8]],[[6293,1291],[-31,-15],[-36,-9]],[[5520,1451],[-11,-34],[-31,7],[-28,74],[-53,16],[-60,-4],[-35,19],[-141,31],[25,3],[-66,13],[18,23],[-13,17],[-45,-24],[-5,-16],[-125,-23],[-43,23],[-6,59]],[[3761,1749],[13,28],[41,0],[7,-21],[8,63],[13,5],[44,-9],[15,15],[-11,12],[-4,21],[33,22],[31,-8],[50,-6],[43,7],[26,-11],[3,-17],[-11,-9],[-29,-41],[-27,-20],[-34,-8],[-36,-16],[-33,-50]],[[3846,1681],[-35,25],[-16,7],[-34,36]],[[3903,1706],[-36,-23],[-21,-2]],[[4155,1384],[-130,83]],[[4192,1361],[-37,23]],[[4517,1584],[-32,-35],[-26,-8],[-40,20],[-20,-7],[-5,-61],[-16,-16],[-52,9],[-1,-7],[48,-12],[-26,-34],[-112,-5],[-31,-39],[-16,-12],[4,-16]],[[3929,1622],[12,5],[-29,46],[48,80],[77,20],[46,64],[52,-9],[9,-13],[19,12],[107,-23],[26,-33],[-101,-72],[-64,-81],[9,-27],[20,9],[14,43],[21,12],[18,26],[24,4],[-9,17],[44,15],[53,-24],[9,-15],[27,-4],[17,20],[5,-17],[39,-57],[95,-36]],[[3928,1537],[-5,7],[29,19],[17,0],[-13,12],[33,1],[11,15],[18,-3],[-1,23],[-40,9],[-48,2]],[[4025,1467],[-97,70]],[[3509,1536],[-105,35],[-36,13],[-57,4],[-41,15],[-16,19]],[[3846,1681],[12,-8],[-24,-25],[-37,26],[-14,20],[-30,-20],[12,-11],[-27,-5],[-17,-18],[-41,17],[-4,-10],[-39,-9],[-10,2],[-17,-16],[5,-5],[-13,-22],[21,-9],[-28,-4],[-1,-13],[-40,-5],[-39,18],[-13,-12],[49,-35],[-18,9],[-24,-10]],[[3782,1787],[-16,-7],[-14,-28],[9,-3]],[[3928,1537],[-24,-18],[-14,-25],[-22,-4],[-30,-16],[-23,16],[-18,-11],[37,-7],[-24,-9],[-28,4],[-1,-8],[-60,5],[-37,-8],[-7,-20],[19,3],[-12,-22],[-31,13],[-45,-34],[-33,-12],[-50,52],[9,75],[-25,25]],[[3903,1706],[0,-58],[26,-26]],[[3940,1029],[0,-12],[17,-12],[-6,-42],[13,0],[20,-41],[30,-23],[24,-36],[-5,-14],[17,-12],[-40,12],[-63,61],[-11,-7],[15,-15],[-32,-8],[-36,-44],[-36,-32],[-5,-17],[42,-36],[2,-55],[75,-52],[36,-6],[32,-28],[73,-30],[-3,-13],[20,1],[20,29],[36,10],[41,-14],[15,-22],[-2,-32],[30,-35],[46,-35],[-9,-8]],[[4029,1106],[36,-31],[-12,-7],[-52,0],[-20,49],[-61,-34],[20,-54]],[[4050,1216],[-21,-16],[-12,2],[-8,-38],[-8,-13],[36,-12],[-1,-16],[-14,2],[7,-19]],[[4025,1467],[-53,-40],[-29,-27],[-60,-19],[8,-13],[-20,-18],[-17,-1],[-7,-19],[-20,-4],[-17,-31],[-32,-3],[0,-24],[44,-18],[45,21],[36,28],[20,-20],[28,16],[91,-58],[-18,-14],[26,-7]],[[4296,461],[-24,-8],[29,-15],[0,-13],[-53,9],[-24,-48],[-98,29],[-97,66],[-122,-13],[-52,-65],[-9,3],[-125,12],[-1,-35],[-55,35],[40,110],[12,3],[-10,98],[38,8],[12,76],[-15,2],[-213,1],[-35,14],[-129,-85],[-38,-156],[-41,-47],[-170,77],[-36,-7],[-65,24],[-66,3],[-32,8],[-62,-32],[-88,-11],[-33,9],[13,74],[-7,2],[15,53],[-13,3],[16,62]],[[4282,1022],[-34,9],[-65,4],[-29,20],[-6,-4],[-201,-16],[-7,-6]],[[4447,1240],[-20,-12],[-11,-19],[-46,-12],[-23,-38],[-19,-1],[-22,-16],[8,-22],[-13,-10],[23,-20],[0,-18],[-15,-4],[21,-13],[-2,-11],[-27,-4],[-19,-18]],[[4642,1307],[-19,-9],[-34,8],[-25,-23],[-23,4],[-25,-4],[-28,-21],[-41,-22]],[[4769,1560],[-106,-80],[20,-29],[0,-38],[-46,-1],[-3,-8],[-52,4],[-9,-15],[4,-20],[28,-16],[-7,-23],[48,-5],[-4,-22]],[[4517,1584],[47,-15],[4,8],[25,-1],[94,34],[48,-10],[34,-40]],[[4029,1106],[28,-4],[40,35],[12,-10],[34,32],[0,15],[43,28],[46,-4],[101,99],[-57,25],[12,12],[12,-4],[22,19],[21,-7],[-17,-17],[35,-15],[25,24],[26,-20],[19,4],[48,74],[-56,25],[-17,4],[-67,2],[-21,-31],[-17,8],[-16,-9],[-24,9],[-4,-15],[-17,1],[-40,-30],[-8,5]],[[5034,1258],[0,-23],[-28,-4],[-6,-14],[15,-15],[-27,-8],[-18,-18],[-11,-39],[16,-34],[28,-17],[8,14],[21,-8],[-17,-16],[-60,3],[-9,-39]],[[4769,1560],[28,-92],[-9,-43],[12,-14],[19,-42],[-32,0],[38,-8],[5,8],[27,-16],[13,-16],[28,-3],[28,-12],[28,8],[12,-15],[-21,-23],[-11,14],[-28,9],[-25,-12],[13,-13],[0,16],[16,-9],[-15,-25],[27,-12],[-1,20],[34,7],[61,-16],[18,-13]],[[4740,1159],[-87,50],[25,4],[0,35],[24,35],[-23,7],[-8,12],[-29,5]],[[4946,1040],[-31,5],[-46,42],[-129,72]],[[7520,676],[-1,8],[25,16],[-12,24],[28,32],[-21,21],[18,5],[-18,44],[-44,16],[-139,119],[16,25],[-56,83],[-149,30],[-16,-4],[-55,28],[-48,0],[-66,16],[-15,-13],[-17,16],[-55,-35],[21,-39],[-69,-12],[-1,20],[20,6],[-12,12],[-138,-29],[-16,-1],[-109,-39],[-39,-8],[-4,-17],[-23,-14],[-37,-9],[9,-6],[-20,-22],[-89,8],[-24,-3],[-66,-47]],[[7394,1438],[25,-31],[19,-2],[-17,-27],[-64,2],[-5,-28],[20,-3],[-28,-10],[-32,10],[-15,-7],[63,-28],[1,-11],[51,-53],[143,-15],[86,-50],[16,-68],[42,-13],[113,-154],[-17,-22],[46,-92],[-58,-37],[-16,17],[-195,-145],[-48,1],[-4,4]],[[6298,907],[0,12],[-24,38],[-33,6],[-5,16],[5,19],[-24,27],[-13,1],[-21,30],[46,23],[-25,36],[21,35],[-8,19],[23,25],[4,25],[-7,45],[-11,3]],[[9687,876],[268,-43],[-5,-82],[-91,-86],[140,-314],[-227,-126],[-58,40],[-121,-69],[41,-109],[-6,-6],[-75,-24],[-127,224],[29,21],[-142,127],[-276,-50],[-30,17],[-27,-18],[-53,-63],[-117,-11],[-25,-53],[-129,-48],[-179,23],[-44,-7],[-6,16],[-60,-12],[69,-111],[61,-33],[-105,-79],[-99,82],[-133,-16],[-65,58],[-17,28],[-88,36],[-68,172],[-165,129],[2,39],[-33,4],[-16,8],[-28,27],[-41,35],[-45,24],[-40,7],[19,-27],[-30,5],[-149,38],[-51,20],[-38,32],[21,8],[-16,17],[4,32],[-5,12],[-31,5],[-24,11],[85,-4],[13,8],[10,-12],[29,-23],[8,-13],[70,-46],[11,1],[38,-21]],[[4155,1384],[-7,-14],[-27,-14],[-27,-38],[-12,-9],[36,-23],[-68,-70]],[[5876,1303],[40,7],[42,-3],[-21,7],[48,15]],[[5916,1051],[-19,20],[-38,5],[5,20],[24,-5],[61,36],[24,-1],[-84,44],[-30,-1],[17,134]],[[6298,907],[-66,-50],[-56,-23],[-46,-22],[17,37],[-24,19],[-4,21],[-13,29],[-2,17],[-42,7],[-53,40],[-36,11],[-57,58]],[[5544,1317],[182,17],[122,-35],[28,4]],[[5870,1044],[-55,75],[-53,15],[-21,43],[-83,20],[-30,38],[-70,-7],[-3,69],[-11,20]],[[5916,1051],[-46,-7]],[[5428,943],[-15,3],[1,94],[20,63],[-62,7],[-36,-4],[-41,59],[-40,-14]],[[5777,865],[-169,42],[-1,1],[-179,35]],[[5870,1044],[-88,-32],[-5,-147]],[[5252,1221],[196,38],[30,-22],[4,7],[-20,20],[-53,12],[64,42],[71,-1]],[[5255,1151],[-3,70]],[[4740,1159],[-24,-10],[12,-7],[-42,-20],[-13,0],[-84,45],[-21,-17]],[[4492,1209],[-45,31]],[[4568,1150],[-76,59]],[[5255,1151],[1,-44],[-46,8],[5,7],[-21,8],[-4,-11],[0,-71],[12,-1],[34,-22],[7,-16],[19,5],[0,-35],[94,-22],[1,-18],[-10,-29],[13,-6]],[[5034,1258],[22,-2],[48,6],[22,-22],[7,11],[21,-7],[40,9],[35,-28],[23,-4]],[[4898,996],[13,14],[34,19],[1,11]],[[5019,949],[-121,47]],[[5304,859],[-9,-3],[-60,19],[-144,52],[-3,-4],[-69,26]],[[5340,860],[-36,-1]],[[5360,904],[-16,-23],[-4,-21]],[[4492,1209],[-20,-45],[-42,-2],[-10,-20],[-26,7],[-17,-23],[-16,4],[-23,-39],[59,-11],[33,-28],[39,-21],[38,-10],[47,-32],[47,47],[-56,25],[4,3]],[[4212,727],[13,58],[20,19],[28,37],[27,19],[-4,9],[9,46],[-12,24],[-4,42],[-12,20],[5,21]],[[4654,919],[-56,-17],[-124,24],[-12,-27],[-24,-78],[21,-15],[-32,-75],[25,-4],[-21,-7],[-17,15],[-24,-4],[-3,-12],[-16,4],[-25,-7],[-8,7],[-79,17],[-36,4],[-11,-17]],[[4549,1064],[28,-13],[53,52],[72,-32],[-59,-58],[72,-35],[-16,-20],[-4,-16],[-41,-23]],[[4568,1150],[38,-30],[-57,-56]],[[5428,943],[-14,-7],[-1,-28],[-37,11],[-16,-15]],[[4898,996],[-52,29],[-12,-28],[15,4],[17,-8],[-29,-24]],[[4837,969],[-22,17],[-19,-13],[-20,-33],[-24,-17],[0,-25],[16,-15],[-4,-8],[-29,36],[-20,-4],[9,-12],[-13,-4],[-45,11],[-12,17]],[[4212,727],[-3,-20],[38,-42],[10,-39],[63,-47],[19,-37],[60,-52]],[[4399,490],[-21,-1],[-17,20],[0,-13],[-32,16],[-16,-23],[15,-3],[-32,-25]],[[5019,949],[-5,-30],[-14,4],[-17,-21],[28,-19],[105,-46],[58,-24],[70,-23]],[[4986,859],[0,16],[-76,1],[15,7],[25,33],[-64,26],[-49,27]],[[5225,691],[-27,0],[0,-15],[-32,5],[1,10],[-54,-2],[0,45],[-54,2],[-27,-4],[0,7],[-50,1],[1,46],[8,12],[17,6],[-1,24],[-23,-10],[0,14],[52,-3],[-9,23],[-32,0],[-9,7]],[[5251,786],[-26,-44],[5,-42],[-5,-9]],[[5244,790],[7,-4]],[[4553,523],[-137,-3],[7,-27],[-24,-3]],[[4986,859],[-19,-33],[-16,4],[-75,-65],[4,-17],[-16,6],[-23,-20],[12,-34],[-38,0],[17,-23],[-25,-32],[-19,5],[-24,-12],[-49,-6],[12,8],[-32,13],[0,-20],[-12,4],[-34,0],[-3,-23],[-56,0],[-5,32],[-57,8],[-17,-13],[-7,-19],[65,-8],[11,-55],[-23,-12],[-4,-24]],[[5655,795],[-23,-2],[-69,17],[-40,19],[-163,31],[-20,0]],[[5777,865],[-2,-67],[-94,1],[-26,-4]],[[5669,642],[-73,2],[-21,5],[-105,74],[7,17],[-44,6],[-116,24],[-66,16]],[[5655,795],[0,-18],[152,-2],[-1,-21],[-101,1],[1,-62],[-13,-12],[-23,0],[-1,-39]],[[5244,790],[18,36],[-27,7],[19,23],[54,-3],[-4,6]],[[5222,556],[-19,0],[0,-20],[27,-20],[9,-12],[-17,-4],[-8,12],[-41,8],[-1,-11],[-69,27],[-80,40],[-3,-12],[48,-31],[1,-12],[19,-6],[7,-19],[-27,-19],[-8,5],[-81,2],[-12,9],[-76,20],[-338,10]],[[5225,691],[11,-15],[-6,-7],[8,-23],[-20,0],[-12,-24],[8,-8],[-12,-24],[20,-34]],[[5669,642],[3,-20],[21,-13],[-16,-12],[-25,4],[0,-25],[52,2],[1,-24],[-150,0],[0,-29],[-28,4],[3,26],[-90,0],[0,11],[-30,1],[-2,-12],[-35,0],[0,-20],[-49,-2],[-53,-9],[-28,32],[-21,0]]],"transform":{"scale":[40.05595018271955,59.05975614261245],"translate":[5898289.763185433,1916261.944963626]}}